{
"type": "FeatureCollection",
"name": "green_line",
"crs": { "type": "name", "properties": { "name": "urn:ogc:def:crs:OGC:1.3:CRS84" } },
"features": [
{ "type": "Feature", "properties": { }, "geometry": { "type": "LineString", "coordinates": [ [ 34.987022605809422, 31.9677309031844 ], [ 34.987638999479806, 31.967657698369766 ], [ 34.989053096985685, 31.963269268852436 ], [ 34.99294685397718, 31.957175756385922 ], [ 34.998943866477546, 31.951555326700714 ], [ 35.006923010031521, 31.946345212046484 ], [ 35.006640889050686, 31.944583274199534 ], [ 35.002574683377475, 31.937760703127267 ], [ 35.003268855538622, 31.9344257887217 ], [ 35.012042036116448, 31.927691953623704 ], [ 35.018366692143637, 31.925862650789593 ], [ 35.028313795769847, 31.924914136004993 ], [ 35.031212104083487, 31.923396864869442 ], [ 35.033976956680462, 31.920194355198792 ], [ 35.036461492207238, 31.915139301711768 ], [ 35.039057899192656, 31.905107133611232 ], [ 35.038448420465571, 31.898451457727919 ], [ 35.039339358595846, 31.89187720239492 ], [ 35.039089778391734, 31.885510847724543 ], [ 35.03711033978373, 31.87004773405069 ], [ 35.032381129642623, 31.857053563843539 ], [ 35.029405233956787, 31.855919682523439 ], [ 35.01796011063049, 31.85658402048713 ], [ 35.004942639848764, 31.855464467136532 ], [ 34.995959314549125, 31.853561579599141 ], [ 34.992722650316217, 31.851051267272727 ], [ 34.989795986985804, 31.845133188050916 ], [ 34.97857962296527, 31.837303370475698 ], [ 34.97788991436277, 31.835645596209464 ], [ 34.978160966434928, 31.832388217607402 ], [ 34.983063654945873, 31.831033948548825 ], [ 35.003570082699802, 31.829383653849941 ], [ 35.022376834748449, 31.829572019270863 ], [ 35.030717612757186, 31.833435624702446 ], [ 35.043687458480434, 31.845672895357708 ], [ 35.05433055530866, 31.854110532847855 ], [ 35.060865956108081, 31.856431125476661 ], [ 35.067350142751451, 31.856427849232016 ], [ 35.074120800540719, 31.855583722205772 ], [ 35.082845236424525, 31.852212329776293 ], [ 35.097336065020151, 31.833830531996231 ], [ 35.100768132388716, 31.831282173353433 ], [ 35.104713037799627, 31.829754885182737 ], [ 35.104636479158152, 31.826970274058908 ], [ 35.075023900278396, 31.842554327974092 ], [ 35.055065964098411, 31.850983882804545 ], [ 35.043162849451335, 31.82535242228758 ], [ 35.035148614234167, 31.819824770832383 ], [ 35.031297301164507, 31.818215595661414 ], [ 35.026734386970993, 31.817801651629345 ], [ 35.006743479785179, 31.819541601684303 ], [ 34.995004008424921, 31.818513059164331 ], [ 34.986366513531671, 31.816139136446761 ], [ 34.980695312643746, 31.816052499073294 ], [ 34.973828644278882, 31.818041185883544 ], [ 34.966264664703978, 31.823922559146411 ], [ 34.961774424974472, 31.8303084791369 ], [ 34.958723547063236, 31.840748766732034 ], [ 34.957462444285746, 31.851275444903361 ], [ 34.955801289026404, 31.855908303098943 ], [ 34.956635478206593, 31.85851592582306 ], [ 34.959473680908594, 31.861589180732114 ], [ 34.988153691944838, 31.868384862295535 ], [ 34.999908922694182, 31.870185977347123 ], [ 35.027006526039202, 31.869644423301072 ], [ 35.026448211056838, 31.87138557702216 ], [ 35.027352966337567, 31.880430174191712 ], [ 35.024158440464333, 31.885467165296554 ], [ 35.024614888287964, 31.887519319855382 ], [ 35.02740303929243, 31.89155156439644 ], [ 35.025336400553577, 31.897439262530998 ], [ 35.023223124180795, 31.915529752834125 ], [ 35.021115311334, 31.918277701836487 ], [ 35.007056139720554, 31.9215487036216 ], [ 34.999682364235696, 31.926691066686594 ], [ 34.996523207815912, 31.92982411867871 ], [ 34.994801988650948, 31.933921315574878 ], [ 34.991005559984671, 31.949077605825789 ], [ 34.989154065124872, 31.952648904577433 ], [ 34.982130605557771, 31.961931956530076 ], [ 34.98044179473861, 31.967962812820286 ], [ 34.983969462593109, 31.96723429224733 ], [ 34.987022605809422, 31.9677309031844 ] ] } },
{ "type": "Feature", "properties": { }, "geometry": { "type": "LineString", "coordinates": [ [ 35.224886559951436, 31.796380936292099 ], [ 35.225643524155721, 31.796331070370908 ], [ 35.22682679389775, 31.79138724024671 ], [ 35.223746792830902, 31.796314040449506 ], [ 35.224886559951436, 31.796380936292099 ] ] } },
{ "type": "Feature", "properties": { }, "geometry": { "type": "LineString", "coordinates": [ [ 35.22682679389775, 31.79138724024671 ], [ 35.228861485949679, 31.790041856927477 ], [ 35.227112915453795, 31.787519425514208 ], [ 35.227040760424963, 31.789298458589489 ], [ 35.22682679389775, 31.79138724024671 ] ] } },
{ "type": "Feature", "properties": { }, "geometry": { "type": "LineString", "coordinates": [ [ 35.226883980495188, 31.787040363785092 ], [ 35.228190106435726, 31.78522122794303 ], [ 35.227427700096563, 31.783578610363229 ], [ 35.230286380864932, 31.781650236507737 ], [ 35.225838389246292, 31.779233988582675 ], [ 35.225669283089289, 31.778416301509278 ], [ 35.227572635166581, 31.776681193026153 ], [ 35.22778103971963, 31.773011787190324 ], [ 35.23063711091045, 31.772947678738156 ], [ 35.232715662911218, 31.769267577192501 ], [ 35.229708011664542, 31.767101322079796 ], [ 35.229099544452765, 31.762718696835925 ], [ 35.242424946567809, 31.758690656277849 ], [ 35.243059259758027, 31.757543925987328 ], [ 35.243006763705772, 31.751859645052711 ], [ 35.235205040316281, 31.744588530222678 ], [ 35.224197223783122, 31.744487568207937 ], [ 35.22311196700479, 31.745822957311411 ], [ 35.224560627986619, 31.747384619962002 ], [ 35.224937462755996, 31.750510580703839 ], [ 35.224257312722209, 31.750974292801903 ], [ 35.225101514491129, 31.757027225864778 ], [ 35.22651296514276, 31.757286621356073 ], [ 35.227627440489023, 31.756383873616745 ], [ 35.227996656521064, 31.756884541150939 ], [ 35.228577409412935, 31.76158571567996 ], [ 35.228035210811292, 31.764520260138656 ], [ 35.230028789157487, 31.771185758657378 ], [ 35.22970058899368, 31.772549930590724 ], [ 35.227652004384922, 31.772828483519614 ], [ 35.225465686834887, 31.776795980245026 ], [ 35.22542284750935, 31.779200661821001 ], [ 35.22748055288266, 31.780514738341921 ], [ 35.226547050365568, 31.781973913675415 ], [ 35.227387087437279, 31.784122399421157 ], [ 35.226883980495188, 31.787040363785092 ] ] } },
{ "type": "Feature", "properties": { }, "geometry": { "type": "LineString", "coordinates": [ [ 35.24878407800577, 31.801538996207416 ], [ 35.24967005313853, 31.802067950120978 ], [ 35.250921832431729, 31.80059313571466 ], [ 35.251612603628942, 31.797850447993085 ], [ 35.250833778767031, 31.796414275660741 ], [ 35.248486479849021, 31.795065029217788 ], [ 35.247676579006622, 31.78980758601946 ], [ 35.248798663284092, 31.788160856546245 ], [ 35.247669854356495, 31.787731991218521 ], [ 35.244734909094696, 31.791475263693403 ], [ 35.240493370234944, 31.793103229144759 ], [ 35.240588886585797, 31.795618909989773 ], [ 35.238432800461858, 31.798292609563937 ], [ 35.24003673053712, 31.800077950574515 ], [ 35.242686850302491, 31.798732456629359 ], [ 35.245047328175993, 31.801145690446457 ], [ 35.248120667511749, 31.801999445290523 ], [ 35.24878407800577, 31.801538996207416 ] ] } },
{ "type": "Feature", "properties": { }, "geometry": { "type": "LineString", "coordinates": [ [ 35.224605987490882, 32.552197701555592 ], [ 35.236482939765892, 32.536131727491181 ], [ 35.252107560891382, 32.523241982976238 ], [ 35.276729646453035, 32.514017178750898 ], [ 35.293440763153441, 32.509781265184344 ], [ 35.306281622546237, 32.509947924837405 ], [ 35.3171501559235, 32.511623632878781 ], [ 35.330827376515842, 32.515461605723708 ], [ 35.332666618875791, 32.515391409598067 ], [ 35.342345312186978, 32.519144501756656 ], [ 35.349897433855425, 32.518145354892454 ], [ 35.356724462293499, 32.518791735252798 ], [ 35.365703051025392, 32.516961435345721 ], [ 35.370715578255947, 32.515125092276627 ], [ 35.381444693113103, 32.508804931122626 ], [ 35.384567675440735, 32.50502377726486 ], [ 35.390385799562075, 32.505244831574799 ], [ 35.396536958038702, 32.502477124496423 ], [ 35.402782799688808, 32.501281508638151 ], [ 35.404458407058499, 32.49857505777063 ], [ 35.404303292146956, 32.493315644511028 ], [ 35.406436659325259, 32.487684693824662 ], [ 35.407153319334164, 32.482718770164063 ], [ 35.409919010143518, 32.476333216274774 ], [ 35.413957593980733, 32.471299219733943 ], [ 35.417371091566906, 32.463768469966411 ], [ 35.419204257886683, 32.462591120846461 ], [ 35.420169938975576, 32.458937699794909 ], [ 35.417221056066168, 32.456788119637316 ], [ 35.411941872077733, 32.437911189152636 ], [ 35.412006939648897, 32.433606799547682 ], [ 35.416692546983164, 32.423944957443197 ], [ 35.418917688238118, 32.417247831927874 ], [ 35.431283326949796, 32.40878144755829 ], [ 35.440934475386491, 32.405876277004865 ], [ 35.443858585750199, 32.407616764831815 ], [ 35.445002230976833, 32.410972328227189 ], [ 35.448890866823035, 32.410457047195095 ], [ 35.452965558975301, 32.412755857953243 ], [ 35.457877129635563, 32.412854988787338 ], [ 35.460683533624703, 32.411602505779669 ], [ 35.466789950903951, 32.412269066945953 ], [ 35.467572490793302, 32.411652979474489 ], [ 35.476944464170678, 32.411146819554354 ], [ 35.481670301377996, 32.409571839204503 ], [ 35.490928439350618, 32.402937098881019 ], [ 35.496247789050322, 32.401036296609604 ], [ 35.514489022293965, 32.397056470481381 ], [ 35.52183862633634, 32.394416768073512 ], [ 35.5327748346932, 32.392119871910246 ], [ 35.538668430023748, 32.388064131103135 ], [ 35.541435590275938, 32.387081748750226 ], [ 35.547730902678893, 32.388583641611881 ], [ 35.553218687755219, 32.388179415468933 ], [ 35.554442035328691, 32.389259529306749 ] ] } },
{ "type": "Feature", "properties": { }, "geometry": { "type": "LineString", "coordinates": [ [ 35.558657860228863, 31.762964190348182 ], [ 35.558657985889454, 31.762964203526248 ] ] } },
{ "type": "Feature", "properties": { }, "geometry": { "type": "LineString", "coordinates": [ [ 35.558657985889454, 31.762964203526248 ], [ 35.542547201394243, 31.743240552516092 ], [ 35.525597548509943, 31.718404004576943 ], [ 35.518563383767372, 31.702277668780159 ], [ 35.5155539184967, 31.692755347465482 ], [ 35.511017571924789, 31.684363082615178 ], [ 35.507858464063247, 31.672538370918861 ], [ 35.502020680636214, 31.659367335057944 ], [ 35.48978309492793, 31.624845984980162 ], [ 35.483761223786715, 31.599717212758524 ], [ 35.483937526600776, 31.595904276733862 ], [ 35.481745674870467, 31.584046033055142 ], [ 35.4802903677462, 31.568582129257607 ], [ 35.479714540051006, 31.553532687774936 ], [ 35.478202058113638, 31.542259825925139 ], [ 35.478813314726231, 31.530442883138761 ], [ 35.478019176092005, 31.519721393871663 ], [ 35.478179061652085, 31.491729389082742 ], [ 35.417524393057128, 31.492537799096127 ], [ 35.394943127571565, 31.490557109430949 ] ] } },
{ "type": "Feature", "properties": { }, "geometry": { "type": "MultiLineString", "coordinates": [ [ [ 35.230323752457686, 31.781693563243032 ], [ 35.227427700096563, 31.783578610363229 ], [ 35.228190106435726, 31.78522122794303 ], [ 35.226883980495188, 31.787040363785092 ], [ 35.228861485949679, 31.790041856927477 ], [ 35.22682679389775, 31.79138724024671 ], [ 35.225643524155721, 31.796331070370908 ], [ 35.224087394971761, 31.797389572111967 ], [ 35.223681062990941, 31.800772372245738 ], [ 35.21708680966524, 31.804850633935867 ], [ 35.21000793398354, 31.805178622885375 ], [ 35.204976919987253, 31.80790863430385 ], [ 35.196700981192777, 31.809726731848652 ], [ 35.176015565497657, 31.807832622339809 ], [ 35.163505132602246, 31.808919032876389 ], [ 35.148694566782424, 31.81143855629248 ], [ 35.135323368630402, 31.815916945439092 ], [ 35.125477749923441, 31.82297695647592 ], [ 35.120330271791971, 31.825297010771383 ], [ 35.11102998233406, 31.824669248958422 ], [ 35.104883132360939, 31.825205691407547 ], [ 35.104713037799627, 31.829754885182737 ], [ 35.100768132388716, 31.831282173353433 ], [ 35.097336065020151, 31.833830531996231 ], [ 35.083221730091878, 31.851890848505192 ], [ 35.079655073184156, 31.853909753666262 ], [ 35.073344281771718, 31.855753708402091 ], [ 35.061720178172685, 31.856531005414723 ], [ 35.054993301540208, 31.85448021783364 ], [ 35.043687458480434, 31.845672895357708 ], [ 35.030717612757186, 31.833435624702446 ], [ 35.022222262335021, 31.829532201355548 ], [ 35.003570082699802, 31.829383653849941 ], [ 34.983063654945873, 31.831033948548825 ], [ 34.97806144928736, 31.832518946698951 ], [ 34.977903415521638, 31.83579456283546 ], [ 34.97857962296527, 31.837303370475698 ], [ 34.989795986985804, 31.845133188050916 ], [ 34.992722650316217, 31.851051267272727 ], [ 34.995959314549125, 31.853561579599141 ], [ 35.004771141374171, 31.855447993156606 ], [ 35.01796011063049, 31.85658402048713 ], [ 35.029405233956787, 31.855919682523439 ], [ 35.032506869019663, 31.857177875872093 ], [ 35.035995734210417, 31.865891378287007 ], [ 35.038623804683368, 31.87901358125945 ], [ 35.039339358595846, 31.89187720239492 ], [ 35.038448420465571, 31.898451457727919 ], [ 35.039147676196819, 31.904229383118491 ], [ 35.036160031771679, 31.915938422131042 ], [ 35.033976956680462, 31.920194355198792 ], [ 35.031212104083487, 31.923396864869442 ], [ 35.027518667268303, 31.925136372192448 ], [ 35.018566346468333, 31.925828984130401 ], [ 35.012614225710323, 31.927443973867454 ], [ 35.003153565910615, 31.934556792450266 ], [ 35.002574683377475, 31.937760703127267 ], [ 35.006640889050686, 31.944583274199534 ], [ 35.006923010031521, 31.946345212046484 ], [ 34.998943866477546, 31.951555326700714 ], [ 34.99294685397718, 31.957175756385922 ], [ 34.989053096985685, 31.963269268852436 ], [ 34.987638999479806, 31.967657698369766 ], [ 34.987022605809422, 31.9677309031844 ], [ 34.98679607818535, 31.970565019971591 ], [ 34.994178415647021, 31.972880599837975 ], [ 34.999341573896182, 31.995464430989216 ], [ 34.998729523488485, 32.012548867160582 ], [ 34.999246566031374, 32.01711664179863 ], [ 35.005115472886352, 32.020669102924074 ], [ 35.002793604895146, 32.040428863539944 ], [ 34.998462444839738, 32.055784631874239 ], [ 34.993090512556464, 32.068876519339149 ], [ 34.986309048965971, 32.089386794867977 ], [ 34.98353597848206, 32.088855427971055 ], [ 34.982485214606747, 32.089850074003387 ], [ 34.983894614771373, 32.093761527632779 ], [ 34.985417308450081, 32.095333571325725 ], [ 34.985794012973152, 32.100558983479139 ], [ 34.990702837624639, 32.102448160793593 ], [ 34.989856604724032, 32.104715722841426 ], [ 34.992368565845261, 32.105849447158214 ], [ 34.99335553781863, 32.107792907293693 ], [ 34.993202281617393, 32.110436308974407 ], [ 34.988952617486476, 32.115063510002692 ], [ 34.988918640812471, 32.119377953961823 ], [ 34.98605752438656, 32.123034739902309 ], [ 34.985218448621922, 32.126196737720178 ], [ 34.985532050543341, 32.130292526743887 ], [ 34.988669200455533, 32.134196171739191 ], [ 34.98754360523202, 32.138344583082869 ], [ 34.989120848663056, 32.138819022575113 ], [ 34.990432197194103, 32.142180401671901 ], [ 34.986401142340597, 32.148564650136905 ], [ 34.979296466865001, 32.148780337154861 ], [ 34.974271953928891, 32.152429306645082 ], [ 34.977174909910353, 32.157638692702356 ], [ 34.977177495775884, 32.15886596931044 ], [ 34.974237613742346, 32.162336749293679 ], [ 34.970446762173808, 32.164688805410719 ], [ 34.970692055980223, 32.166454075354551 ], [ 34.96697204509951, 32.169047804662156 ], [ 34.964081924276698, 32.169004585962874 ], [ 34.964467366892706, 32.173128714352359 ], [ 34.961783629632947, 32.173675655825399 ], [ 34.959432502170735, 32.175900496449614 ], [ 34.957023508280066, 32.189986823238634 ], [ 34.959349374147607, 32.193513782146667 ], [ 34.960073300142071, 32.193523778528409 ], [ 34.961013703787444, 32.197305027841395 ], [ 34.964494037248485, 32.200041669707879 ], [ 34.970252482863543, 32.200929301395405 ], [ 34.973098623358865, 32.20021945761841 ], [ 34.975231260881976, 32.200592505780456 ], [ 34.977661208243845, 32.202904450519377 ], [ 34.982579522293427, 32.20409436194506 ], [ 34.984805926925432, 32.206742146563769 ], [ 34.986815413624001, 32.206579918952386 ], [ 34.988981503766666, 32.207472582748402 ], [ 34.992123704575576, 32.213464146123094 ], [ 35.005381960607309, 32.224268698222247 ], [ 35.01089109342896, 32.230921782576466 ], [ 35.010371517376271, 32.231648464495024 ], [ 35.010916018409048, 32.232692961286276 ], [ 35.014170168558415, 32.235550043659721 ], [ 35.017748475692414, 32.23345494990285 ], [ 35.020256020681671, 32.234342507642978 ], [ 35.020013729906871, 32.240051227737865 ], [ 35.01912858537861, 32.242342127649643 ], [ 35.023970753990639, 32.248762145848943 ], [ 35.023798138749541, 32.254968061500044 ], [ 35.026070544642259, 32.259332620009431 ], [ 35.028603077841275, 32.260485645771347 ], [ 35.030525776798378, 32.26580790514879 ], [ 35.025834015696169, 32.273847958829585 ], [ 35.023416757978588, 32.274775734754179 ], [ 35.022528653363636, 32.276925881408353 ], [ 35.020050495385192, 32.279370165169176 ], [ 35.016043766133713, 32.280536127627833 ], [ 35.014388375947327, 32.279471675906599 ], [ 35.012237732974491, 32.279607772803232 ], [ 35.008825109424215, 32.281344494942189 ], [ 35.013662365238467, 32.293598725965474 ], [ 35.012431717641753, 32.293969825622312 ], [ 35.014921276430236, 32.302761284721164 ], [ 35.016340946978396, 32.338623934089682 ], [ 35.019855982508638, 32.341060633023659 ], [ 35.026933008979888, 32.340195657444028 ], [ 35.028527883196851, 32.347020541040884 ], [ 35.034375239565655, 32.345786526271674 ], [ 35.038355117819478, 32.3456840394647 ], [ 35.040837692463299, 32.346594817948571 ], [ 35.042088062684911, 32.349270569340121 ], [ 35.041042002064067, 32.355283096935445 ], [ 35.044163050843487, 32.358968383063278 ], [ 35.0482021894924, 32.359777000142536 ], [ 35.050679693206703, 32.364167089435412 ], [ 35.051467656052509, 32.367185548347585 ], [ 35.04893812482095, 32.376537600234691 ], [ 35.04178903590703, 32.377699030873707 ], [ 35.040130055465745, 32.380688590229454 ], [ 35.044117929491314, 32.386512849626556 ], [ 35.044878105827088, 32.389546520708741 ], [ 35.047092327972202, 32.390226181175223 ], [ 35.048973291889475, 32.393817487969542 ], [ 35.049146177629005, 32.396529859950959 ], [ 35.053874932303955, 32.402929011407515 ], [ 35.055161471009328, 32.411880833697403 ], [ 35.054126092126509, 32.412226213144812 ], [ 35.053625042307473, 32.416475106975348 ], [ 35.057004817188407, 32.419362164746865 ], [ 35.056658433532967, 32.423970114492441 ], [ 35.05983448643137, 32.429622118983033 ], [ 35.060218344593515, 32.433949815674488 ], [ 35.061103847492205, 32.435543112502948 ], [ 35.060676255940109, 32.436865092714868 ], [ 35.065646946644783, 32.443095950739021 ], [ 35.065427641326821, 32.448819252177778 ], [ 35.066228975164307, 32.450514849413025 ], [ 35.068101412572346, 32.452158345304532 ], [ 35.0723069931936, 32.453839789126825 ], [ 35.073511355836921, 32.455971556555255 ], [ 35.072250461049528, 32.458301105161624 ], [ 35.075021963286538, 32.461771465965903 ], [ 35.082365716475039, 32.467889934130937 ], [ 35.085839202066815, 32.469029306250448 ], [ 35.092037036890005, 32.475825244218548 ], [ 35.098222880229656, 32.477912225603326 ], [ 35.102169382348343, 32.478148677387168 ], [ 35.105176477586703, 32.477267237145576 ], [ 35.107060855247362, 32.475474102388873 ], [ 35.112455523961749, 32.478005569593876 ], [ 35.113228989752336, 32.479454270900575 ], [ 35.119256792464142, 32.481044147429571 ], [ 35.125713075757623, 32.48390418857354 ], [ 35.12826652577607, 32.486335103171946 ], [ 35.139996336746194, 32.493419178746556 ], [ 35.137833149697002, 32.494462801222113 ], [ 35.13897496885572, 32.496301961035464 ], [ 35.144769504783284, 32.496260880644364 ], [ 35.155737760129441, 32.50297368544966 ], [ 35.160628624773203, 32.504154644474589 ], [ 35.164048540466787, 32.508832140432432 ], [ 35.167713334939386, 32.51085061600071 ], [ 35.177354958125548, 32.518399743558895 ], [ 35.177757885486194, 32.521246917867536 ], [ 35.180483259759633, 32.524294906429461 ], [ 35.18710024551342, 32.5236668901996 ], [ 35.195543046318605, 32.532737803635356 ], [ 35.196912485129864, 32.535489306157082 ], [ 35.201837174509492, 32.539445574195142 ], [ 35.205096692401256, 32.541341067808247 ], [ 35.214574017859299, 32.54443528992941 ], [ 35.215976834658811, 32.546005026606238 ], [ 35.216201987125963, 32.547924425670743 ], [ 35.224605987490882, 32.552197701555592 ] ], [ [ 35.247647599500489, 31.787736810996996 ], [ 35.247647746175559, 31.787738892393016 ], [ 35.247642621148017, 31.787741200137884 ], [ 35.247642449260816, 31.787737125684838 ], [ 35.247647599500489, 31.787736810996996 ] ], [ [ 35.247645154276796, 31.787793718809571 ], [ 35.247653232611142, 31.787816604754564 ], [ 35.247655901924439, 31.787850928765057 ], [ 35.247644883465881, 31.787794878667306 ], [ 35.247645154276796, 31.787793718809571 ] ], [ [ 35.247653232611142, 31.787816604754564 ], [ 35.248798663284092, 31.788160856546245 ], [ 35.247676579006622, 31.78980758601946 ], [ 35.248429315167115, 31.794897645214707 ], [ 35.251390786327093, 31.797067481078244 ], [ 35.251478127371882, 31.799788322273617 ], [ 35.24967005313853, 31.802067950120978 ], [ 35.245047328175993, 31.801145690446457 ], [ 35.242686850302491, 31.798732456629359 ], [ 35.24003673053712, 31.800077950574515 ], [ 35.238432800461858, 31.798292609563937 ], [ 35.240588886585797, 31.795618909989773 ], [ 35.240404827200912, 31.793243602897974 ], [ 35.244734909094696, 31.791475263693403 ], [ 35.246069411975057, 31.790298075299798 ], [ 35.247194630211517, 31.788634371995279 ], [ 35.247662318694367, 31.787883573178366 ], [ 35.247653232611142, 31.787816604754564 ] ], [ [ 35.247523455991129, 31.788093861646782 ], [ 35.247658718521919, 31.787877302107294 ], [ 35.247598791230473, 31.787979777747811 ], [ 35.247523455991129, 31.788093861646782 ] ], [ [ 35.247830072172434, 31.787798500542017 ], [ 35.247805406326378, 31.787788697841126 ], [ 35.247853959309232, 31.787791309238202 ], [ 35.247830072172434, 31.787798500542017 ] ], [ [ 35.24752098820769, 31.788097814343715 ], [ 35.247523177444798, 31.788094284703881 ], [ 35.247523455991129, 31.788093861646782 ], [ 35.24752098820769, 31.788097814343715 ] ], [ [ 35.247520377331433, 31.788098799359442 ], [ 35.24752098820769, 31.788097814343715 ], [ 35.247521016730957, 31.788097847702108 ], [ 35.247520377331433, 31.788098799359442 ] ] ] } },
{ "type": "Feature", "properties": { }, "geometry": { "type": "LineString", "coordinates": [ [ 35.230779938244787, 31.772970759821693 ], [ 35.22778103971963, 31.773011787190324 ], [ 35.227572635166581, 31.776681193026153 ], [ 35.225669283089289, 31.778416301509278 ], [ 35.225838389246292, 31.779233988582675 ], [ 35.230323752457686, 31.781693563243032 ] ] } },
{ "type": "Feature", "properties": { }, "geometry": { "type": "LineString", "coordinates": [ [ 35.394943127571565, 31.490557109430949 ], [ 35.387170768998438, 31.484762979056555 ], [ 35.384164886057754, 31.481371302746552 ], [ 35.363104614027904, 31.466974732318857 ], [ 35.357235298059557, 31.464005021984025 ], [ 35.323986102201303, 31.441084004581445 ], [ 35.302290009473026, 31.428304123515844 ], [ 35.29322816464731, 31.421668937201176 ], [ 35.286838645342407, 31.415645613309781 ], [ 35.275361542881186, 31.409547375629195 ], [ 35.258844185795773, 31.395951655358676 ], [ 35.247599099883814, 31.389409869059783 ], [ 35.237372590625114, 31.379763741406208 ], [ 35.230771800907675, 31.374743390514716 ], [ 35.223603665029962, 31.372437215393195 ], [ 35.207451127878336, 31.371862602014637 ], [ 35.175539176316427, 31.364276681327922 ], [ 35.162507380013352, 31.363707499792326 ], [ 35.147880823334205, 31.36054630058657 ], [ 35.14206413303738, 31.358595715349544 ], [ 35.135468228623203, 31.355176112718553 ], [ 35.112676890217301, 31.356467489762029 ], [ 35.098578524402413, 31.355725959575423 ], [ 35.070446859446058, 31.357702742337199 ], [ 35.018780424993551, 31.358688273677931 ], [ 35.001525026733859, 31.356731527493299 ], [ 34.97254207585511, 31.350408747880259 ], [ 34.96399722049032, 31.349980619373142 ], [ 34.944048868341774, 31.347191195024784 ], [ 34.92875559851494, 31.343184570210724 ], [ 34.924075723930542, 31.342642948815417 ], [ 34.92126064249743, 31.343082715533669 ], [ 34.912237269108068, 31.348760295260661 ], [ 34.910613748073708, 31.35030721622902 ], [ 34.911067984411083, 31.353520625008851 ], [ 34.910046378894059, 31.355275713663467 ], [ 34.897138110642835, 31.364076900158143 ], [ 34.892030195371284, 31.368760751454207 ], [ 34.890293545021947, 31.371428155522299 ], [ 34.886555512742156, 31.382224663540061 ], [ 34.881628931700398, 31.38863304156725 ], [ 34.880514944047391, 31.391474002450824 ], [ 34.885223482469172, 31.408993567489169 ], [ 34.893332558141594, 31.423135134837292 ], [ 34.898243440546288, 31.436494778162015 ], [ 34.905456550100148, 31.44269802462566 ], [ 34.911636916532352, 31.450673734394197 ], [ 34.925993704650502, 31.465080955386682 ], [ 34.939282063774243, 31.489600950712845 ], [ 34.943280026099771, 31.502900151998141 ], [ 34.944215519378936, 31.50985678334915 ], [ 34.940069269872268, 31.524149606010965 ], [ 34.94215131174046, 31.527971982060635 ], [ 34.941573846556658, 31.550589004247779 ], [ 34.943036505071554, 31.554748912374041 ], [ 34.943726565894629, 31.561951595514877 ], [ 34.9451921399273, 31.564023937743215 ], [ 34.947563062684864, 31.581438329619317 ], [ 34.952291304667469, 31.594648637405221 ], [ 34.975638463522081, 31.6181336563494 ], [ 34.989007439304658, 31.636487759674328 ], [ 34.996054791680258, 31.644375420564248 ], [ 35.004280973726495, 31.651054008100477 ], [ 35.007727448425726, 31.653195919456653 ], [ 35.022616021447796, 31.657839370577776 ], [ 35.026332213416488, 31.658333654137259 ], [ 35.051626672179751, 31.672583062013825 ], [ 35.068953432963319, 31.684080625453994 ], [ 35.085140874549509, 31.690652127996565 ], [ 35.08461021143259, 31.693216766868783 ], [ 35.085643990549684, 31.695850014113663 ], [ 35.093186069425549, 31.700727233582715 ], [ 35.099701470213702, 31.708763871099439 ], [ 35.10574004542778, 31.714511285139849 ], [ 35.108546588956784, 31.715258437171503 ], [ 35.117269000549214, 31.713609449512017 ], [ 35.1204803380814, 31.715415372892874 ], [ 35.121194798116555, 31.720752814861871 ], [ 35.123673240248735, 31.725134009842762 ], [ 35.127627263097821, 31.730823025532935 ], [ 35.131347294806964, 31.733161207862764 ], [ 35.135168887213169, 31.73442860306519 ], [ 35.136661114733606, 31.729359473209669 ], [ 35.138033686976726, 31.728639702582111 ], [ 35.140904327975058, 31.728996901111195 ], [ 35.148320769061598, 31.735744084240572 ], [ 35.153637095856631, 31.738138741885646 ], [ 35.158688830371524, 31.744669526263579 ], [ 35.160970065077166, 31.744608251659781 ], [ 35.162903779838381, 31.742498858714963 ], [ 35.165177788367068, 31.741847289601079 ], [ 35.174826020786263, 31.7413884018674 ], [ 35.18180969547673, 31.743544396709158 ], [ 35.186350987235144, 31.747596662099831 ], [ 35.191794028718952, 31.745909526778547 ], [ 35.196220080777891, 31.750236208097956 ], [ 35.197422955795766, 31.749790782481085 ], [ 35.199316069877106, 31.747243652250884 ], [ 35.201036360753584, 31.746652366290828 ], [ 35.203047998434968, 31.746877371386109 ], [ 35.205972740543466, 31.748724812378494 ], [ 35.209033850645611, 31.74800530485496 ], [ 35.211386650234431, 31.745049328132406 ], [ 35.215049938289859, 31.73686214098182 ], [ 35.218567350076206, 31.734206140675891 ], [ 35.220793995160257, 31.733867751096643 ], [ 35.222545308429311, 31.734528961810575 ], [ 35.223957790881286, 31.736645134488999 ], [ 35.225602119398495, 31.74215177195088 ], [ 35.22741045501472, 31.744586089649413 ], [ 35.235431304233465, 31.744658298009011 ], [ 35.243126315967956, 31.752235424585812 ], [ 35.242556847814548, 31.758599305147527 ], [ 35.229099544452765, 31.762718696835925 ], [ 35.229708011664542, 31.767101322079796 ], [ 35.232693791696299, 31.768942918815721 ], [ 35.230779938244787, 31.772970759821693 ] ] } },
{ "type": "Feature", "properties": { }, "geometry": { "type": "LineString", "coordinates": [ [ 34.492341595542364, 31.597145247445351 ], [ 34.49234163191074, 31.597145314383845 ] ] } },
{ "type": "Feature", "properties": { }, "geometry": { "type": "LineString", "coordinates": [ [ 34.49234163191074, 31.597145314383845 ], [ 34.569474029989173, 31.540239787492037 ], [ 34.550929050926555, 31.513127517834011 ], [ 34.54299797111377, 31.508992502020376 ], [ 34.524976970247195, 31.502560683458388 ], [ 34.51614884026597, 31.496752233687491 ], [ 34.503756558556923, 31.49226303914585 ], [ 34.498183506312657, 31.4878389914088 ], [ 34.489333805500522, 31.483785998370269 ], [ 34.477509297347133, 31.471324599058043 ], [ 34.453983104030989, 31.449372415502175 ], [ 34.445825851639668, 31.443713230159315 ], [ 34.432648285253364, 31.431825058644968 ], [ 34.41633904113344, 31.420300316735641 ], [ 34.402986726139638, 31.409562701916414 ], [ 34.393089637772547, 31.403282031766999 ], [ 34.388182693120392, 31.398989280736217 ], [ 34.381801453769064, 31.388944134628737 ], [ 34.37392972041556, 31.379921790605064 ], [ 34.367145506791097, 31.368867739457748 ], [ 34.366063429362278, 31.365819942796033 ], [ 34.368477812199913, 31.334639406568371 ], [ 34.372166871780365, 31.322702385270805 ], [ 34.373166915992712, 31.308748106376271 ], [ 34.372506775290709, 31.300046694707838 ], [ 34.367684339616723, 31.29308390674715 ], [ 34.354187117628825, 31.281664128897351 ], [ 34.342957784235445, 31.273912206543553 ], [ 34.319328015032092, 31.253394160013617 ], [ 34.298129969016912, 31.243250072706392 ], [ 34.289169029833566, 31.234814552238291 ], [ 34.268493274395595, 31.218513715308088 ], [ 34.24055155996669, 31.295824064534685 ], [ 34.236716023280856, 31.296482391128123 ], [ 34.218512822070061, 31.323576172329346 ] ] } }
]
}
