{"type": "FeatureCollection", "features": [{"type": "Feature", "properties": {"name": "Shani", "name_he": "שני", "type": "settlement", "year": 1981}, "geometry": {"type": "Point", "coordinates": [35.070031, 31.358018]}}, {"type": "Feature", "properties": {"name": "Sansana", "name_he": "סנסנה", "type": "settlement", "year": 1999}, "geometry": {"type": "Point", "coordinates": [34.902367, 31.363753]}}, {"type": "Feature", "properties": {"name": "Metzadot Yehuda", "name_he": "מצדות יהודה", "type": "settlement", "year": 1983}, "geometry": {"type": "Point", "coordinates": [35.111169, 31.363064]}}, {"type": "Feature", "properties": {"name": "Asael", "name_he": "עשהאל", "type": "outpost", "year": 2002}, "geometry": {"type": "Point", "coordinates": [35.042558, 31.373606]}}, {"type": "Feature", "properties": {"name": "Shim'a Industrial Area", "name_he": "אזור תעשיה מיתרים", "type": "industrial", "year": null}, "geometry": {"type": "Point", "coordinates": [35.005197, 31.369751]}}, {"type": "Feature", "properties": {"name": "Tene", "name_he": "טנא", "type": "settlement", "year": 1983}, "geometry": {"type": "Point", "coordinates": [34.956762, 31.374949]}}, {"type": "Feature", "properties": {"name": "Mitzpe Yair", "name_he": "מצפה יאיר", "type": "outpost", "year": 1998}, "geometry": {"type": "Point", "coordinates": [35.134842, 31.383002]}}, {"type": "Feature", "properties": {"name": "Eshkolot", "name_he": "אשכולות", "type": "settlement", "year": 1982}, "geometry": {"type": "Point", "coordinates": [34.901261, 31.391108]}}, {"type": "Feature", "properties": {"name": "Shim'a", "name_he": "שמעה", "type": "settlement", "year": 1985}, "geometry": {"type": "Point", "coordinates": [35.011267, 31.386718]}}, {"type": "Feature", "properties": {"name": "Susiya", "name_he": "סוסיא", "type": "settlement", "year": 1983}, "geometry": {"type": "Point", "coordinates": [35.110851, 31.39074]}}, {"type": "Feature", "properties": {"name": "Avigail", "name_he": "אביגיל", "type": "outpost", "year": 2001}, "geometry": {"type": "Point", "coordinates": [35.141125, 31.402851]}}, {"type": "Feature", "properties": {"name": "Carmel", "name_he": "כרמל", "type": "settlement", "year": 1981}, "geometry": {"type": "Point", "coordinates": [35.184606, 31.431408]}}, {"type": "Feature", "properties": {"name": "Otniel", "name_he": "עתניאל", "type": "settlement", "year": 1983}, "geometry": {"type": "Point", "coordinates": [35.029316, 31.438709]}}, {"type": "Feature", "properties": {"name": "Pnei Hever", "name_he": "פני חבר", "type": "settlement", "year": 1982}, "geometry": {"type": "Point", "coordinates": [35.166004, 31.485972]}}, {"type": "Feature", "properties": {"name": "Haggai", "name_he": "חגי", "type": "settlement", "year": 1984}, "geometry": {"type": "Point", "coordinates": [35.07867, 31.490213]}}, {"type": "Feature", "properties": {"name": "Negohot", "name_he": "נגוהות", "type": "settlement", "year": 1999}, "geometry": {"type": "Point", "coordinates": [34.981759, 31.493511]}}, {"type": "Feature", "properties": {"name": "Adora", "name_he": "אדורה", "type": "settlement", "year": 1984}, "geometry": {"type": "Point", "coordinates": [35.017203, 31.552762]}}, {"type": "Feature", "properties": {"name": "Telem", "name_he": "תלם", "type": "settlement", "year": 1982}, "geometry": {"type": "Point", "coordinates": [35.030083, 31.564786]}}, {"type": "Feature", "properties": {"name": "Mitzpe Shalem", "name_he": "מצפה שלם", "type": "settlement", "year": 1971}, "geometry": {"type": "Point", "coordinates": [35.40138, 31.568013]}}, {"type": "Feature", "properties": {"name": "Asfar", "name_he": "אספר", "type": "settlement", "year": 1983}, "geometry": {"type": "Point", "coordinates": [35.188085, 31.586306]}}, {"type": "Feature", "properties": {"name": "Ma'ale Amos", "name_he": "מעלה עמוס", "type": "settlement", "year": 1981}, "geometry": {"type": "Point", "coordinates": [35.22955, 31.596962]}}, {"type": "Feature", "properties": {"name": "Karmei Tzur", "name_he": "כרמי צור", "type": "settlement", "year": 1984}, "geometry": {"type": "Point", "coordinates": [35.100794, 31.609589]}}, {"type": "Feature", "properties": {"name": "Migdal Oz", "name_he": "מגדל עוז", "type": "settlement", "year": 1977}, "geometry": {"type": "Point", "coordinates": [35.143302, 31.639358]}}, {"type": "Feature", "properties": {"name": "Gush Etzyon Industrial Area", "name_he": "אזור תעשיה גוש עציון", "type": "industrial", "year": null}, "geometry": {"type": "Point", "coordinates": [35.153071, 31.641091]}}, {"type": "Feature", "properties": {"name": "Tko'a", "name_he": "תקוע", "type": "settlement", "year": 1977}, "geometry": {"type": "Point", "coordinates": [35.229439, 31.653163]}}, {"type": "Feature", "properties": {"name": "Kfar Etzion", "name_he": "כפר עציון", "type": "settlement", "year": 1967}, "geometry": {"type": "Point", "coordinates": [35.114747, 31.650866]}}, {"type": "Feature", "properties": {"name": "Alon Shvut", "name_he": "אלון שבות", "type": "settlement", "year": 1970}, "geometry": {"type": "Point", "coordinates": [35.125802, 31.654964]}}, {"type": "Feature", "properties": {"name": "Bat Ayin", "name_he": "בת עין", "type": "settlement", "year": 1989}, "geometry": {"type": "Point", "coordinates": [35.104189, 31.657842]}}, {"type": "Feature", "properties": {"name": "El'azar", "name_he": "אלעזר", "type": "settlement", "year": 1975}, "geometry": {"type": "Point", "coordinates": [35.141765, 31.660599]}}, {"type": "Feature", "properties": {"name": "Rosh Tzurim", "name_he": "ראש צורים", "type": "settlement", "year": 1969}, "geometry": {"type": "Point", "coordinates": [35.123946, 31.667926]}}, {"type": "Feature", "properties": {"name": "Ovnat", "name_he": "אבנת", "type": "settlement", "year": 1983}, "geometry": {"type": "Point", "coordinates": [35.437515, 31.67769]}}, {"type": "Feature", "properties": {"name": "Gva'ot", "name_he": "גבעות", "type": "settlement", "year": 1997}, "geometry": {"type": "Point", "coordinates": [35.101002, 31.679347]}}, {"type": "Feature", "properties": {"name": "Neve Daniel", "name_he": "נווה דניאל", "type": "settlement", "year": 1982}, "geometry": {"type": "Point", "coordinates": [35.142067, 31.677861]}}, {"type": "Feature", "properties": {"name": "Efrata", "name_he": "אפרת", "type": "settlement", "year": 1980}, "geometry": {"type": "Point", "coordinates": [35.156254, 31.661081]}}, {"type": "Feature", "properties": {"name": "Sde Boaz", "name_he": "שדה בועז", "type": "outpost", "year": 2002}, "geometry": {"type": "Point", "coordinates": [35.147505, 31.693997]}}, {"type": "Feature", "properties": {"name": "Beitar Illit", "name_he": "ביתר עלית", "type": "settlement", "year": 1985}, "geometry": {"type": "Point", "coordinates": [35.11183, 31.697865]}}, {"type": "Feature", "properties": {"name": "Har Gilo", "name_he": "הר גילה", "type": "settlement", "year": 1972}, "geometry": {"type": "Point", "coordinates": [35.169506, 31.722631]}}, {"type": "Feature", "properties": {"name": "Kalia", "name_he": "קליה", "type": "settlement", "year": 1968}, "geometry": {"type": "Point", "coordinates": [35.467021, 31.750429]}}, {"type": "Feature", "properties": {"name": "Almog", "name_he": "אלמוג", "type": "settlement", "year": 1977}, "geometry": {"type": "Point", "coordinates": [35.462207, 31.787689]}}, {"type": "Feature", "properties": {"name": "Beit Ha'arava", "name_he": "בית הערבה", "type": "settlement", "year": 1980}, "geometry": {"type": "Point", "coordinates": [35.479761, 31.80837]}}, {"type": "Feature", "properties": {"name": "Mitzpe Yericho", "name_he": "מצפה יריחו", "type": "settlement", "year": 1978}, "geometry": {"type": "Point", "coordinates": [35.394074, 31.817827]}}, {"type": "Feature", "properties": {"name": "Vered Yericho", "name_he": "ורד יריחו", "type": "settlement", "year": 1980}, "geometry": {"type": "Point", "coordinates": [35.432233, 31.826638]}}, {"type": "Feature", "properties": {"name": "Har Adar", "name_he": "הר אדר", "type": "settlement", "year": 1986}, "geometry": {"type": "Point", "coordinates": [35.129912, 31.827003]}}, {"type": "Feature", "properties": {"name": "Har Shmuel", "name_he": "הר שמואל", "type": "settlement", "year": 1998}, "geometry": {"type": "Point", "coordinates": [35.170496, 31.835381]}}, {"type": "Feature", "properties": {"name": "Giv'on", "name_he": "גבעון", "type": "settlement", "year": 1977}, "geometry": {"type": "Point", "coordinates": [35.171211, 31.849254]}}, {"type": "Feature", "properties": {"name": "Giv'on Ha'hadasha", "name_he": "גבעון החדשה", "type": "settlement", "year": 1980}, "geometry": {"type": "Point", "coordinates": [35.159159, 31.847439]}}, {"type": "Feature", "properties": {"name": "Mishor Adumim", "name_he": "מישור אדומים", "type": "industrial", "year": null}, "geometry": {"type": "Point", "coordinates": [35.334582, 31.791144]}}, {"type": "Feature", "properties": {"name": "Ma'ale Hagit", "name_he": "מעלה חגית", "type": "outpost", "year": 1999}, "geometry": {"type": "Point", "coordinates": [35.337346, 31.851327]}}, {"type": "Feature", "properties": {"name": "Geva Binyamin Adam", "name_he": "גבע בנימין אדם", "type": "settlement", "year": 1984}, "geometry": {"type": "Point", "coordinates": [35.27931, 31.849541]}}, {"type": "Feature", "properties": {"name": "Binyamin Industrial Area", "name_he": "אזור תעשיה בנימין", "type": "industrial", "year": null}, "geometry": {"type": "Point", "coordinates": [35.262648, 31.865743]}}, {"type": "Feature", "properties": {"name": "Beit Horon", "name_he": "בית חורון", "type": "settlement", "year": 1977}, "geometry": {"type": "Point", "coordinates": [35.128824, 31.876595]}}, {"type": "Feature", "properties": {"name": "Tel Ziyon", "name_he": "תל ציון", "type": "settlement", "year": 1985}, "geometry": {"type": "Point", "coordinates": [35.237538, 31.878007]}}, {"type": "Feature", "properties": {"name": "Ma'ale Michmash", "name_he": "מעלה מכמש", "type": "settlement", "year": 1981}, "geometry": {"type": "Point", "coordinates": [35.305845, 31.879713]}}, {"type": "Feature", "properties": {"name": "Psagot", "name_he": "פסגות", "type": "settlement", "year": 1981}, "geometry": {"type": "Point", "coordinates": [35.22613, 31.897656]}}, {"type": "Feature", "properties": {"name": "Mevo'ot Jericho", "name_he": "מבואות יריחו", "type": "settlement", "year": 1999}, "geometry": {"type": "Point", "coordinates": [35.418194, 31.906186]}}, {"type": "Feature", "properties": {"name": "Givat Assaf", "name_he": "גבעת אסף", "type": "outpost", "year": 2002}, "geometry": {"type": "Point", "coordinates": [35.247927, 31.911646]}}, {"type": "Feature", "properties": {"name": "Na'ama", "name_he": "נעמה", "type": "settlement", "year": 1982}, "geometry": {"type": "Point", "coordinates": [35.466809, 31.909926]}}, {"type": "Feature", "properties": {"name": "Kfar Ha'oranim", "name_he": "כפר אורנים", "type": "settlement", "year": 1998}, "geometry": {"type": "Point", "coordinates": [35.038155, 31.918745]}}, {"type": "Feature", "properties": {"name": "Dolev", "name_he": "דולב", "type": "settlement", "year": 1983}, "geometry": {"type": "Point", "coordinates": [35.134147, 31.927082]}}, {"type": "Feature", "properties": {"name": "Ganei Modiin", "name_he": "גני מודיעין", "type": "settlement", "year": 1985}, "geometry": {"type": "Point", "coordinates": [35.015873, 31.929127]}}, {"type": "Feature", "properties": {"name": "Rimonim", "name_he": "רימונים", "type": "settlement", "year": 1977}, "geometry": {"type": "Point", "coordinates": [35.340865, 31.933691]}}, {"type": "Feature", "properties": {"name": "Yitav", "name_he": "ייט\"ב", "type": "settlement", "year": 1970}, "geometry": {"type": "Point", "coordinates": [35.423705, 31.948053]}}, {"type": "Feature", "properties": {"name": "Neriya", "name_he": "נריה", "type": "settlement", "year": 1991}, "geometry": {"type": "Point", "coordinates": [35.129409, 31.9519]}}, {"type": "Feature", "properties": {"name": "Ofra", "name_he": "עפרה", "type": "settlement", "year": 1975}, "geometry": {"type": "Point", "coordinates": [35.26527, 31.949142]}}, {"type": "Feature", "properties": {"name": "Kochav Ha'shachar", "name_he": "כוכב השחר", "type": "settlement", "year": 1977}, "geometry": {"type": "Point", "coordinates": [35.348024, 31.95729]}}, {"type": "Feature", "properties": {"name": "Na'ale", "name_he": "נעלה", "type": "settlement", "year": 1988}, "geometry": {"type": "Point", "coordinates": [35.063977, 31.9634]}}, {"type": "Feature", "properties": {"name": "Niran", "name_he": "נירן", "type": "settlement", "year": 1977}, "geometry": {"type": "Point", "coordinates": [35.457657, 31.967938]}}, {"type": "Feature", "properties": {"name": "Netiv Ha'gdud", "name_he": "נתיב הגדוד", "type": "settlement", "year": 1976}, "geometry": {"type": "Point", "coordinates": [35.445425, 31.988654]}}, {"type": "Feature", "properties": {"name": "Gilgal", "name_he": "גלגל", "type": "settlement", "year": 1970}, "geometry": {"type": "Point", "coordinates": [35.447202, 31.999877]}}, {"type": "Feature", "properties": {"name": "Ateret", "name_he": "עטרת", "type": "settlement", "year": 1981}, "geometry": {"type": "Point", "coordinates": [35.177677, 32.000811]}}, {"type": "Feature", "properties": {"name": "Halamish", "name_he": "חלמיש", "type": "settlement", "year": 1977}, "geometry": {"type": "Point", "coordinates": [35.125552, 32.005902]}}, {"type": "Feature", "properties": {"name": "Tomer", "name_he": "תומר", "type": "settlement", "year": 1978}, "geometry": {"type": "Point", "coordinates": [35.438962, 32.018426]}}, {"type": "Feature", "properties": {"name": "Ofarim", "name_he": "עופרים", "type": "settlement", "year": 1989}, "geometry": {"type": "Point", "coordinates": [35.044753, 32.018585]}}, {"type": "Feature", "properties": {"name": "Beit Arye", "name_he": "בית אריה", "type": "settlement", "year": 1981}, "geometry": {"type": "Point", "coordinates": [35.051258, 32.03653]}}, {"type": "Feature", "properties": {"name": "Petzael", "name_he": "פצאל", "type": "settlement", "year": 1975}, "geometry": {"type": "Point", "coordinates": [35.442696, 32.044112]}}, {"type": "Feature", "properties": {"name": "Kida", "name_he": "קידה", "type": "outpost", "year": 2003}, "geometry": {"type": "Point", "coordinates": [35.339016, 32.050623]}}, {"type": "Feature", "properties": {"name": "Haroeh", "name_he": "הרואה", "type": "outpost", "year": 2002}, "geometry": {"type": "Point", "coordinates": [35.263802, 32.053914]}}, {"type": "Feature", "properties": {"name": "Ma'ale Levona", "name_he": "מעלה לבונה", "type": "settlement", "year": 1983}, "geometry": {"type": "Point", "coordinates": [35.240536, 32.054923]}}, {"type": "Feature", "properties": {"name": "Shilo", "name_he": "שילה", "type": "settlement", "year": 1979}, "geometry": {"type": "Point", "coordinates": [35.297189, 32.052381]}}, {"type": "Feature", "properties": {"name": "Ahiya", "name_he": "אחיה", "type": "outpost", "year": 1997}, "geometry": {"type": "Point", "coordinates": [35.328084, 32.06088]}}, {"type": "Feature", "properties": {"name": "Esh Kodesh", "name_he": "אש קודש", "type": "outpost", "year": 2000}, "geometry": {"type": "Point", "coordinates": [35.3373, 32.065468]}}, {"type": "Feature", "properties": {"name": "Yafit", "name_he": "יפית", "type": "settlement", "year": 1980}, "geometry": {"type": "Point", "coordinates": [35.472604, 32.061473]}}, {"type": "Feature", "properties": {"name": "Alei Zahav", "name_he": "עלי זהב", "type": "settlement", "year": 1982}, "geometry": {"type": "Point", "coordinates": [35.065062, 32.07173]}}, {"type": "Feature", "properties": {"name": "Ma'ale Efraim", "name_he": "מעלה אפרים", "type": "settlement", "year": 1970}, "geometry": {"type": "Point", "coordinates": [35.410526, 32.069707]}}, {"type": "Feature", "properties": {"name": "Bruchin", "name_he": "ברוכין", "type": "settlement", "year": 1999}, "geometry": {"type": "Point", "coordinates": [35.091469, 32.081536]}}, {"type": "Feature", "properties": {"name": "Eli", "name_he": "עלי", "type": "settlement", "year": 1984}, "geometry": {"type": "Point", "coordinates": [35.265778, 32.072643]}}, {"type": "Feature", "properties": {"name": "Migdalim", "name_he": "מגדלים", "type": "settlement", "year": 1983}, "geometry": {"type": "Point", "coordinates": [35.343255, 32.090827]}}, {"type": "Feature", "properties": {"name": "Nofei Nehamia", "name_he": "נופי נחמיה", "type": "outpost", "year": 2002}, "geometry": {"type": "Point", "coordinates": [35.236706, 32.098089]}}, {"type": "Feature", "properties": {"name": "Rechelim", "name_he": "רחלים", "type": "settlement", "year": 1991}, "geometry": {"type": "Point", "coordinates": [35.253583, 32.100334]}}, {"type": "Feature", "properties": {"name": "Gitit", "name_he": "גיתית", "type": "settlement", "year": 1973}, "geometry": {"type": "Point", "coordinates": [35.394201, 32.103738]}}, {"type": "Feature", "properties": {"name": "Ariel", "name_he": "אריאל", "type": "settlement", "year": 1978}, "geometry": {"type": "Point", "coordinates": [35.188823, 32.102412]}}, {"type": "Feature", "properties": {"name": "Magen Dan", "name_he": "מגן דן", "type": "outpost", "year": 1999}, "geometry": {"type": "Point", "coordinates": [35.021114, 32.109266]}}, {"type": "Feature", "properties": {"name": "Modi'in Ilit", "name_he": "מודיעין עילית", "type": "settlement", "year": 1996}, "geometry": {"type": "Point", "coordinates": [35.045496, 31.931913]}}, {"type": "Feature", "properties": {"name": "Barqan Industrial Area", "name_he": "אזור תעשיה ברקן", "type": "industrial", "year": null}, "geometry": {"type": "Point", "coordinates": [35.117575, 32.105304]}}, {"type": "Feature", "properties": {"name": "Barqan", "name_he": "ברקן", "type": "settlement", "year": 1981}, "geometry": {"type": "Point", "coordinates": [35.10607, 32.108546]}}, {"type": "Feature", "properties": {"name": "Masu'a", "name_he": "משואה", "type": "settlement", "year": 1970}, "geometry": {"type": "Point", "coordinates": [35.49217, 32.105892]}}, {"type": "Feature", "properties": {"name": "Kiryat Netafim", "name_he": "קרית נטפים", "type": "settlement", "year": 1983}, "geometry": {"type": "Point", "coordinates": [35.112254, 32.116904]}}, {"type": "Feature", "properties": {"name": "Elkana", "name_he": "אלקנה", "type": "settlement", "year": 1977}, "geometry": {"type": "Point", "coordinates": [35.035228, 32.111723]}}, {"type": "Feature", "properties": {"name": "Etz Efraim", "name_he": "עץ אפרים", "type": "settlement", "year": 1985}, "geometry": {"type": "Point", "coordinates": [35.045983, 32.118505]}}, {"type": "Feature", "properties": {"name": "Kfar Tapuah", "name_he": "כפר תפוח", "type": "settlement", "year": 1978}, "geometry": {"type": "Point", "coordinates": [35.249625, 32.119453]}}, {"type": "Feature", "properties": {"name": "Revava", "name_he": "רבבה", "type": "settlement", "year": 1991}, "geometry": {"type": "Point", "coordinates": [35.127814, 32.118987]}}, {"type": "Feature", "properties": {"name": "Sha'arei Tikva", "name_he": "שערי תקוה", "type": "settlement", "year": 1983}, "geometry": {"type": "Point", "coordinates": [35.026551, 32.122695]}}, {"type": "Feature", "properties": {"name": "Oranit", "name_he": "אורנית", "type": "settlement", "year": 1985}, "geometry": {"type": "Point", "coordinates": [34.994163, 32.13007]}}, {"type": "Feature", "properties": {"name": "Havat Yair", "name_he": "חוות יאיר", "type": "outpost", "year": 2001}, "geometry": {"type": "Point", "coordinates": [35.105933, 32.14602]}}, {"type": "Feature", "properties": {"name": "Nirit", "name_he": "נירית", "type": "settlement", "year": 2006}, "geometry": {"type": "Point", "coordinates": [34.986233, 32.14921]}}, {"type": "Feature", "properties": {"name": "Yakir", "name_he": "יקיר", "type": "settlement", "year": 1981}, "geometry": {"type": "Point", "coordinates": [35.114698, 32.149743]}}, {"type": "Feature", "properties": {"name": "Nofim", "name_he": "נופים", "type": "settlement", "year": 1987}, "geometry": {"type": "Point", "coordinates": [35.101826, 32.154916]}}, {"type": "Feature", "properties": {"name": "Alonei Shilo", "name_he": "אלוני שילה", "type": "outpost", "year": 1999}, "geometry": {"type": "Point", "coordinates": [35.122701, 32.16402]}}, {"type": "Feature", "properties": {"name": "Mechora", "name_he": "מכורה", "type": "settlement", "year": 1973}, "geometry": {"type": "Point", "coordinates": [35.422088, 32.161103]}}, {"type": "Feature", "properties": {"name": "Immanuel", "name_he": "עמנואל", "type": "settlement", "year": 1983}, "geometry": {"type": "Point", "coordinates": [35.138052, 32.16113]}}, {"type": "Feature", "properties": {"name": "Alfei Menashe Industrial Area", "name_he": "אזור תעשיה אלפי מנשה", "type": "industrial", "year": null}, "geometry": {"type": "Point", "coordinates": [34.995505, 32.169694]}}, {"type": "Feature", "properties": {"name": "Ma'ale Shomron", "name_he": "מעלה שומרון", "type": "settlement", "year": 1980}, "geometry": {"type": "Point", "coordinates": [35.071187, 32.166329]}}, {"type": "Feature", "properties": {"name": "Yitzhar", "name_he": "יצהר", "type": "settlement", "year": 1983}, "geometry": {"type": "Point", "coordinates": [35.23363, 32.169107]}}, {"type": "Feature", "properties": {"name": "Argaman", "name_he": "ארגמן", "type": "settlement", "year": 1968}, "geometry": {"type": "Point", "coordinates": [35.521956, 32.172495]}}, {"type": "Feature", "properties": {"name": "Sne Ya'akov", "name_he": "סנה יעקב", "type": "outpost", "year": 1999}, "geometry": {"type": "Point", "coordinates": [35.261793, 32.177745]}}, {"type": "Feature", "properties": {"name": "Arnon Hill 777", "name_he": "גבעת ארנון 777", "type": "outpost", "year": 1999}, "geometry": {"type": "Point", "coordinates": [35.368805, 32.155054]}}, {"type": "Feature", "properties": {"name": "Alfei Menashe", "name_he": "אלפי מנשה", "type": "settlement", "year": 1983}, "geometry": {"type": "Point", "coordinates": [35.014871, 32.171376]}}, {"type": "Feature", "properties": {"name": "Karnei Shomron", "name_he": "קרני שומרון", "type": "settlement", "year": 1978}, "geometry": {"type": "Point", "coordinates": [35.096805, 32.172625]}}, {"type": "Feature", "properties": {"name": "Bracha", "name_he": "ברכה", "type": "settlement", "year": 1983}, "geometry": {"type": "Point", "coordinates": [35.264523, 32.193632]}}, {"type": "Feature", "properties": {"name": "Gilad Farm", "name_he": "חוות גלעד", "type": "outpost", "year": 2002}, "geometry": {"type": "Point", "coordinates": [35.1809, 32.200443]}}, {"type": "Feature", "properties": {"name": "Hamra", "name_he": "חמרה", "type": "settlement", "year": 1971}, "geometry": {"type": "Point", "coordinates": [35.435471, 32.198821]}}, {"type": "Feature", "properties": {"name": "Tzofim", "name_he": "צופים", "type": "settlement", "year": 1989}, "geometry": {"type": "Point", "coordinates": [35.010359, 32.198723]}}, {"type": "Feature", "properties": {"name": "Har Hemed", "name_he": "הר חמד", "type": "outpost", "year": 1996}, "geometry": {"type": "Point", "coordinates": [35.151865, 32.230474]}}, {"type": "Feature", "properties": {"name": "Kedumim", "name_he": "קדומים", "type": "settlement", "year": 1977}, "geometry": {"type": "Point", "coordinates": [35.160473, 32.218364]}}, {"type": "Feature", "properties": {"name": "Elon More", "name_he": "אלון מורה", "type": "settlement", "year": 1979}, "geometry": {"type": "Point", "coordinates": [35.334685, 32.233112]}}, {"type": "Feature", "properties": {"name": "Sal'it", "name_he": "סלעית", "type": "settlement", "year": 1977}, "geometry": {"type": "Point", "coordinates": [35.048007, 32.243317]}}, {"type": "Feature", "properties": {"name": "Bqa'ot", "name_he": "בקעות", "type": "settlement", "year": 1972}, "geometry": {"type": "Point", "coordinates": [35.456835, 32.242318]}}, {"type": "Feature", "properties": {"name": "Chemdat", "name_he": "חמדת", "type": "settlement", "year": 1980}, "geometry": {"type": "Point", "coordinates": [35.526804, 32.251485]}}, {"type": "Feature", "properties": {"name": "Kedumim Industrial Area", "name_he": "אזור תעשיה בר-און", "type": "industrial", "year": null}, "geometry": {"type": "Point", "coordinates": [35.168867, 32.246124]}}, {"type": "Feature", "properties": {"name": "Ro'i", "name_he": "רועי", "type": "settlement", "year": 1976}, "geometry": {"type": "Point", "coordinates": [35.483787, 32.24999]}}, {"type": "Feature", "properties": {"name": "Shavei Shomron", "name_he": "שבי שומרון", "type": "settlement", "year": 1977}, "geometry": {"type": "Point", "coordinates": [35.183647, 32.26369]}}, {"type": "Feature", "properties": {"name": "Enav", "name_he": "ענב", "type": "settlement", "year": 1981}, "geometry": {"type": "Point", "coordinates": [35.125046, 32.284801]}}, {"type": "Feature", "properties": {"name": "Maskiyot", "name_he": "משכיות", "type": "settlement", "year": 2008}, "geometry": {"type": "Point", "coordinates": [35.503319, 32.318369]}}, {"type": "Feature", "properties": {"name": "Tene Yarok Farm", "name_he": "חוות טנא ירוק", "type": "farm", "year": 2012}, "geometry": {"type": "Point", "coordinates": [35.515544, 32.336469]}}, {"type": "Feature", "properties": {"name": "Shadmot Mehola", "name_he": "שדמות מחולה", "type": "settlement", "year": 1979}, "geometry": {"type": "Point", "coordinates": [35.534841, 32.347184]}}, {"type": "Feature", "properties": {"name": "Mechola", "name_he": "מחולה", "type": "settlement", "year": 1968}, "geometry": {"type": "Point", "coordinates": [35.51571, 32.365418]}}, {"type": "Feature", "properties": {"name": "Mevo Dotan", "name_he": "מבוא דותן", "type": "settlement", "year": 1978}, "geometry": {"type": "Point", "coordinates": [35.175464, 32.420091]}}, {"type": "Feature", "properties": {"name": "Maoz Zvi", "name_he": "מעוז צבי", "type": "outpost", "year": 2001}, "geometry": {"type": "Point", "coordinates": [35.164276, 32.424106]}}, {"type": "Feature", "properties": {"name": "Hermesh", "name_he": "חרמש", "type": "settlement", "year": 1982}, "geometry": {"type": "Point", "coordinates": [35.118681, 32.423576]}}, {"type": "Feature", "properties": {"name": "Reihan", "name_he": "ריחן", "type": "settlement", "year": 1977}, "geometry": {"type": "Point", "coordinates": [35.137449, 32.469476]}}, {"type": "Feature", "properties": {"name": "Shaked", "name_he": "שקד", "type": "settlement", "year": 1981}, "geometry": {"type": "Point", "coordinates": [35.168239, 32.474126]}}, {"type": "Feature", "properties": {"name": "Shahak Industrial Area", "name_he": "אזור תעשיה שחק", "type": "industrial", "year": null}, "geometry": {"type": "Point", "coordinates": [35.179838, 32.474962]}}, {"type": "Feature", "properties": {"name": "Hinanit", "name_he": "חיננית", "type": "settlement", "year": 1981}, "geometry": {"type": "Point", "coordinates": [35.173109, 32.48025]}}, {"type": "Feature", "properties": {"name": "Tal Menashe", "name_he": "טל מנשה", "type": "settlement", "year": 1983}, "geometry": {"type": "Point", "coordinates": [35.160234, 32.482261]}}, {"type": "Feature", "properties": {"name": "Kiryat Arba", "name_he": "קרית ארבע", "type": "settlement", "year": 1972}, "geometry": {"type": "Point", "coordinates": [35.121402, 31.536495]}}, {"type": "Feature", "properties": {"name": "Ma'on", "name_he": "מעון", "type": "settlement", "year": 1981}, "geometry": {"type": "Point", "coordinates": [35.163575, 31.413273]}}, {"type": "Feature", "properties": {"name": "Almon", "name_he": "עלמון", "type": "settlement", "year": 1982}, "geometry": {"type": "Point", "coordinates": [35.294556, 31.828678]}}, {"type": "Feature", "properties": {"name": "Mevo Horon", "name_he": "מבוא חורון", "type": "settlement", "year": 1970}, "geometry": {"type": "Point", "coordinates": [35.037502, 31.848044]}}, {"type": "Feature", "properties": {"name": "Nahliel", "name_he": "נחליאל", "type": "settlement", "year": 1984}, "geometry": {"type": "Point", "coordinates": [35.140431, 31.97412]}}, {"type": "Feature", "properties": {"name": "Ma'ale Efraim Students Village", "name_he": "כפר סטודנטים מעלה אפרים", "type": "settlement", "year": null}, "geometry": {"type": "Point", "coordinates": [35.393682, 32.070197]}}, {"type": "Feature", "properties": {"name": "Avnei Hefetz", "name_he": "אבני חפץ", "type": "settlement", "year": 1990}, "geometry": {"type": "Point", "coordinates": [35.075725, 32.285539]}}, {"type": "Feature", "properties": {"name": "Ma'ale Adumim", "name_he": "מעלה אדומים", "type": "settlement", "year": 1975}, "geometry": {"type": "Point", "coordinates": [35.302822, 31.781854]}}, {"type": "Feature", "properties": {"name": "Matityahu", "name_he": "מתתיהו", "type": "settlement", "year": 1981}, "geometry": {"type": "Point", "coordinates": [35.032667, 31.930384]}}, {"type": "Feature", "properties": {"name": "Nofei Prat", "name_he": "נופי פרת", "type": "settlement", "year": 1992}, "geometry": {"type": "Point", "coordinates": [35.32155, 31.823435]}}, {"type": "Feature", "properties": {"name": "Bnei Adam", "name_he": "בני אדם", "type": "outpost", "year": 2004}, "geometry": {"type": "Point", "coordinates": [35.302069, 31.844237]}}, {"type": "Feature", "properties": {"name": "Giva'at Ze'ev", "name_he": "גבעת זאב", "type": "settlement", "year": 1983}, "geometry": {"type": "Point", "coordinates": [35.167697, 31.861079]}}, {"type": "Feature", "properties": {"name": "Zayit Raanan", "name_he": "זית רענן", "type": "settlement", "year": 2001}, "geometry": {"type": "Point", "coordinates": [35.115458, 31.956738]}}, {"type": "Feature", "properties": {"name": "Haresha", "name_he": "חרשה", "type": "settlement", "year": 1997}, "geometry": {"type": "Point", "coordinates": [35.147363, 31.943253]}}, {"type": "Feature", "properties": {"name": "Horesh Yaron", "name_he": "חורש ירון", "type": "settlement", "year": 1997}, "geometry": {"type": "Point", "coordinates": [35.139754, 31.945624]}}, {"type": "Feature", "properties": {"name": "Lotziphar Farm", "name_he": "חוות לוציפר", "type": "outpost", "year": 1996}, "geometry": {"type": "Point", "coordinates": [35.122584, 31.366411]}}, {"type": "Feature", "properties": {"name": "Giva't Habuster", "name_he": "גבעת הבוסטר", "type": "outpost", "year": 2002}, "geometry": {"type": "Point", "coordinates": [34.97088, 31.49663]}}, {"type": "Feature", "properties": {"name": "Pnei Kedem", "name_he": "פני קדם", "type": "settlement", "year": 2002}, "geometry": {"type": "Point", "coordinates": [35.196756, 31.587778]}}, {"type": "Feature", "properties": {"name": "Ibei Hanachal", "name_he": "איבי הנחל", "type": "settlement", "year": 1999}, "geometry": {"type": "Point", "coordinates": [35.219885, 31.605926]}}, {"type": "Feature", "properties": {"name": "Adei Ad", "name_he": "עדי עד", "type": "outpost", "year": 1998}, "geometry": {"type": "Point", "coordinates": [35.335502, 32.040547]}}, {"type": "Feature", "properties": {"name": "Ariel Industrial Area", "name_he": "אזור תעשיה אריאל", "type": "industrial", "year": null}, "geometry": {"type": "Point", "coordinates": [35.121914, 32.093821]}}, {"type": "Feature", "properties": {"name": "Zufit Elisha", "name_he": "צופית אלישע", "type": "settlement", "year": 1999}, "geometry": {"type": "Point", "coordinates": [35.138303, 32.01099]}}, {"type": "Feature", "properties": {"name": "Agan Haayalot", "name_he": "אגן האיילות", "type": "settlement", "year": null}, "geometry": {"type": "Point", "coordinates": [35.145672, 31.863655]}}, {"type": "Feature", "properties": {"name": "Gush Etzion Junction", "name_he": "צומת גוש עציון", "type": "industrial", "year": null}, "geometry": {"type": "Point", "coordinates": [35.130341, 31.645743]}}, {"type": "Feature", "properties": {"name": "Haroe Haivri", "name_he": "הרועה העברי", "type": "farm", "year": 2015}, "geometry": {"type": "Point", "coordinates": [35.321944, 31.812339]}}, {"type": "Feature", "properties": {"name": "Chase Land Khan", "name_he": "חאן ארץ המרדפים", "type": "outpost", "year": 2012}, "geometry": {"type": "Point", "coordinates": [35.356436, 31.820504]}}, {"type": "Feature", "properties": {"name": "Neve Erez", "name_he": "נווה ארז", "type": "outpost", "year": 2001}, "geometry": {"type": "Point", "coordinates": [35.310956, 31.864737]}}, {"type": "Feature", "properties": {"name": "Kerem Reim", "name_he": "כרם רעים", "type": "settlement", "year": 2012}, "geometry": {"type": "Point", "coordinates": [35.13727, 31.958417]}}, {"type": "Feature", "properties": {"name": "Pedu'el", "name_he": "פדואל", "type": "settlement", "year": 1984}, "geometry": {"type": "Point", "coordinates": [35.052185, 32.061776]}}, {"type": "Feature", "properties": {"name": "Shaharit", "name_he": "שחרית", "type": "farm", "year": 2015}, "geometry": {"type": "Point", "coordinates": [35.076333, 32.089662]}}, {"type": "Feature", "properties": {"name": "Maale Yisrael", "name_he": "מעלה ישראל", "type": "outpost", "year": 1997}, "geometry": {"type": "Point", "coordinates": [35.104857, 32.115455]}}, {"type": "Feature", "properties": {"name": "Imanuel Industrial Area", "name_he": "אזור תעשיה עמנואל", "type": "industrial", "year": null}, "geometry": {"type": "Point", "coordinates": [35.152353, 32.173896]}}, {"type": "Feature", "properties": {"name": "Givat Salit", "name_he": "גבעת סלעית", "type": "settlement", "year": 2002}, "geometry": {"type": "Point", "coordinates": [35.510696, 32.364176]}}, {"type": "Feature", "properties": {"name": "Brosh", "name_he": "ברוש", "type": "settlement", "year": 2013}, "geometry": {"type": "Point", "coordinates": [35.542052, 32.319521]}}, {"type": "Feature", "properties": {"name": "Beit Hogla", "name_he": "בית חגלה", "type": "outpost", "year": 2001}, "geometry": {"type": "Point", "coordinates": [35.507108, 31.821132]}}, {"type": "Feature", "properties": {"name": "Kedem Arava", "name_he": "קדם ערבה", "type": "outpost", "year": 2017}, "geometry": {"type": "Point", "coordinates": [35.49949, 31.807089]}}, {"type": "Feature", "properties": {"name": "Metzokei Dragot", "name_he": "מצוקי דרגות", "type": "tourism", "year": null}, "geometry": {"type": "Point", "coordinates": [35.392687, 31.591314]}}, {"type": "Feature", "properties": {"name": "Mor Farm", "name_he": "חוות מור", "type": "outpost", "year": 1999}, "geometry": {"type": "Point", "coordinates": [34.968923, 31.370833]}}, {"type": "Feature", "properties": {"name": "Susya-HaRujm neighborhood", "name_he": "סוסיא-שכונת הרוג'ום", "type": "outpost", "year": 2001}, "geometry": {"type": "Point", "coordinates": [35.109729, 31.395466]}}, {"type": "Feature", "properties": {"name": "Old Synagogue Susya", "name_he": "בית כנסת עתיק סוסיא", "type": "outpost", "year": 2002}, "geometry": {"type": "Point", "coordinates": [35.104304, 31.406977]}}, {"type": "Feature", "properties": {"name": "Ma'on Farm", "name_he": "חוות מעון", "type": "outpost", "year": 2001}, "geometry": {"type": "Point", "coordinates": [35.160488, 31.40912]}}, {"type": "Feature", "properties": {"name": "Gal Neighborhood", "name_he": "שכונת גל", "type": "outpost", "year": 2002}, "geometry": {"type": "Point", "coordinates": [35.12658, 31.523626]}}, {"type": "Feature", "properties": {"name": "Tzur Shalem", "name_he": "צור שלם", "type": "outpost", "year": 2001}, "geometry": {"type": "Point", "coordinates": [35.097581, 31.60608]}}, {"type": "Feature", "properties": {"name": "Arugot Farm", "name_he": "חוות ערוגות", "type": "outpost", "year": 2013}, "geometry": {"type": "Point", "coordinates": [35.216563, 31.600036]}}, {"type": "Feature", "properties": {"name": "Maale Amos Industrial Are", "name_he": "אזור תעשיה מעלה עמוס", "type": "industrial", "year": 2015}, "geometry": {"type": "Point", "coordinates": [35.217754, 31.619491]}}, {"type": "Feature", "properties": {"name": "Tko'a D", "name_he": "תקוע ד", "type": "outpost", "year": 2002}, "geometry": {"type": "Point", "coordinates": [35.238762, 31.63686]}}, {"type": "Feature", "properties": {"name": "Tko'a B-C", "name_he": "תקוע ב-ג", "type": "outpost", "year": 2001}, "geometry": {"type": "Point", "coordinates": [35.231221, 31.644772]}}, {"type": "Feature", "properties": {"name": "Sde Bar", "name_he": "שדה בר", "type": "settlement", "year": 1998}, "geometry": {"type": "Point", "coordinates": [35.244366, 31.660332]}}, {"type": "Feature", "properties": {"name": "Kfar Eldad", "name_he": "כפר אלדד", "type": "settlement", "year": 1982}, "geometry": {"type": "Point", "coordinates": [35.252663, 31.6522]}}, {"type": "Feature", "properties": {"name": "Maale Rehavam", "name_he": "מעלה רחבעם", "type": "outpost", "year": 2002}, "geometry": {"type": "Point", "coordinates": [35.258218, 31.649107]}}, {"type": "Feature", "properties": {"name": "Givat Hadagan", "name_he": "גבעת הדגן", "type": "settlement", "year": 2000}, "geometry": {"type": "Point", "coordinates": [35.172311, 31.681475]}}, {"type": "Feature", "properties": {"name": "Givat Hatamar", "name_he": "גבעת התמר", "type": "settlement", "year": 2002}, "geometry": {"type": "Point", "coordinates": [35.164879, 31.679917]}}, {"type": "Feature", "properties": {"name": "Netiv Haavot", "name_he": "נתיב האבות", "type": "outpost", "year": 2001}, "geometry": {"type": "Point", "coordinates": [35.13517, 31.665155]}}, {"type": "Feature", "properties": {"name": "Gush Etzion Council", "name_he": "מועצה אזורית גוש עציון", "type": "other", "year": null}, "geometry": {"type": "Point", "coordinates": [35.118925, 31.657659]}}, {"type": "Feature", "properties": {"name": "Givat Hahish", "name_he": "גבעת החיש", "type": "outpost", "year": 1998}, "geometry": {"type": "Point", "coordinates": [35.132024, 31.655603]}}, {"type": "Feature", "properties": {"name": "Old Masuot Yizhak", "name_he": "משואות יצחק הישנה", "type": "tourism", "year": 2001}, "geometry": {"type": "Point", "coordinates": [35.109079, 31.660959]}}, {"type": "Feature", "properties": {"name": "Bat Ayin East", "name_he": "בת עין מזרח", "type": "outpost", "year": 1998}, "geometry": {"type": "Point", "coordinates": [35.108511, 31.653261]}}, {"type": "Feature", "properties": {"name": "Bat Ayin West", "name_he": "בת עין מערב", "type": "outpost", "year": 2002}, "geometry": {"type": "Point", "coordinates": [35.092783, 31.66147]}}, {"type": "Feature", "properties": {"name": "Kashuela Farm", "name_he": "חוות קשואלה", "type": "farm", "year": 2012}, "geometry": {"type": "Point", "coordinates": [35.102148, 31.675563]}}, {"type": "Feature", "properties": {"name": "Old Keidar", "name_he": "קדר הישנה", "type": "settlement", "year": 1985}, "geometry": {"type": "Point", "coordinates": [35.301564, 31.746056]}}, {"type": "Feature", "properties": {"name": "Keidar", "name_he": "קדר", "type": "settlement", "year": 1985}, "geometry": {"type": "Point", "coordinates": [35.309924, 31.754025]}}, {"type": "Feature", "properties": {"name": "Givat Granit 468", "name_he": "גבעת גרניט 468", "type": "outpost", "year": 2002}, "geometry": {"type": "Point", "coordinates": [35.314986, 31.819972]}}, {"type": "Feature", "properties": {"name": "Givat Barkai - Mitzpe Yericho East", "name_he": "גבעת ברקאי - מצפה יריחו מזרח", "type": "outpost", "year": 1997}, "geometry": {"type": "Point", "coordinates": [35.402676, 31.823394]}}, {"type": "Feature", "properties": {"name": "New Migron", "name_he": "מגרון החדשה", "type": "settlement", "year": 2012}, "geometry": {"type": "Point", "coordinates": [35.259201, 31.874504]}}, {"type": "Feature", "properties": {"name": "Mitzpe Kramim", "name_he": "מצפה כרמים", "type": "outpost", "year": 2001}, "geometry": {"type": "Point", "coordinates": [35.357359, 31.958401]}}, {"type": "Feature", "properties": {"name": "Ahavat Haim", "name_he": "אהבת חיים", "type": "outpost", "year": 1999}, "geometry": {"type": "Point", "coordinates": [35.341899, 31.958163]}}, {"type": "Feature", "properties": {"name": "Maale Shlomo", "name_he": "מעלה שלמה", "type": "outpost", "year": 1999}, "geometry": {"type": "Point", "coordinates": [35.345495, 31.94972]}}, {"type": "Feature", "properties": {"name": "Ofra North East", "name_he": "עפרה צפון מזרח", "type": "outpost", "year": 2004}, "geometry": {"type": "Point", "coordinates": [35.268194, 31.958232]}}, {"type": "Feature", "properties": {"name": "Beit El East", "name_he": "בית אל מזרח", "type": "outpost", "year": 2001}, "geometry": {"type": "Point", "coordinates": [35.233275, 31.939982]}}, {"type": "Feature", "properties": {"name": "Jabel Artis", "name_he": "ג'בל ארטיס", "type": "outpost", "year": 2001}, "geometry": {"type": "Point", "coordinates": [35.232379, 31.946626]}}, {"type": "Feature", "properties": {"name": "Heruti", "name_he": "חרותי", "type": "outpost", "year": 2001}, "geometry": {"type": "Point", "coordinates": [35.185704, 31.832946]}}, {"type": "Feature", "properties": {"name": "Mitzpe Haai", "name_he": "מצפה העי", "type": "outpost", "year": 2001}, "geometry": {"type": "Point", "coordinates": [35.230429, 31.895986]}}, {"type": "Feature", "properties": {"name": "Kochav Ya'akov West", "name_he": "כוכב יעקב מערב", "type": "outpost", "year": 2002}, "geometry": {"type": "Point", "coordinates": [35.234184, 31.883663]}}, {"type": "Feature", "properties": {"name": "Kochav Ya'akov East", "name_he": "כוכב יעקב מזרח", "type": "outpost", "year": 2003}, "geometry": {"type": "Point", "coordinates": [35.252106, 31.877836]}}, {"type": "Feature", "properties": {"name": "Talmon", "name_he": "טלמון", "type": "settlement", "year": 1970}, "geometry": {"type": "Point", "coordinates": [35.13745, 31.938393]}}, {"type": "Feature", "properties": {"name": "Shvut Rachel", "name_he": "שבות רחל", "type": "settlement", "year": 1991}, "geometry": {"type": "Point", "coordinates": [35.311824, 32.05265]}}, {"type": "Feature", "properties": {"name": "Shilo Industrial Area", "name_he": "אזור תעשיה שילה", "type": "industrial", "year": 1979}, "geometry": {"type": "Point", "coordinates": [35.305066, 32.046163]}}, {"type": "Feature", "properties": {"name": "Palgei Mayim", "name_he": "פלגי מים", "type": "outpost", "year": 1999}, "geometry": {"type": "Point", "coordinates": [35.274597, 32.087698]}}, {"type": "Feature", "properties": {"name": "Hakaron", "name_he": "הקרון", "type": "outpost", "year": 2002}, "geometry": {"type": "Point", "coordinates": [35.280288, 32.070043]}}, {"type": "Feature", "properties": {"name": "Hayovel", "name_he": "היובל", "type": "outpost", "year": 1998}, "geometry": {"type": "Point", "coordinates": [35.284595, 32.071255]}}, {"type": "Feature", "properties": {"name": "Nof Harim", "name_he": "נוף הרים", "type": "outpost", "year": 1998}, "geometry": {"type": "Point", "coordinates": [35.279629, 32.075959]}}, {"type": "Feature", "properties": {"name": "Kfar Tapuah West", "name_he": "כפר תפוח מערב", "type": "outpost", "year": 2001}, "geometry": {"type": "Point", "coordinates": [35.234525, 32.116654]}}, {"type": "Feature", "properties": {"name": "Ramat Gilad", "name_he": "רמת גלעד", "type": "outpost", "year": 2002}, "geometry": {"type": "Point", "coordinates": [35.11349, 32.179773]}}, {"type": "Feature", "properties": {"name": "Elmatan", "name_he": "אלמתן", "type": "settlement", "year": 2002}, "geometry": {"type": "Point", "coordinates": [35.074675, 32.155288]}}, {"type": "Feature", "properties": {"name": "Hahar", "name_he": "ההר", "type": "outpost", "year": 1998}, "geometry": {"type": "Point", "coordinates": [35.084761, 32.287658]}}, {"type": "Feature", "properties": {"name": "Karmei Doron", "name_he": "כרמי דורון", "type": "outpost", "year": 2002}, "geometry": {"type": "Point", "coordinates": [35.128998, 32.289714]}}, {"type": "Feature", "properties": {"name": "Nahalat Yossef", "name_he": "נחלת יוסף", "type": "outpost", "year": 2012}, "geometry": {"type": "Point", "coordinates": [35.349189, 32.226023]}}, {"type": "Feature", "properties": {"name": "Sculy's Farm Porat Yosef", "name_he": "החוה של סקאלי פורת יוסף", "type": "outpost", "year": 1999}, "geometry": {"type": "Point", "coordinates": [35.36702, 32.216769]}}, {"type": "Feature", "properties": {"name": "Bracha A", "name_he": "ברכה א", "type": "outpost", "year": 1998}, "geometry": {"type": "Point", "coordinates": [35.25549, 32.193196]}}, {"type": "Feature", "properties": {"name": "Ahuzat Shalhevet", "name_he": "אחוזת שלהבת", "type": "outpost", "year": 1999}, "geometry": {"type": "Point", "coordinates": [35.223134, 32.172289]}}, {"type": "Feature", "properties": {"name": "Itamar", "name_he": "איתמר", "type": "settlement", "year": 1984}, "geometry": {"type": "Point", "coordinates": [35.307173, 32.173442]}}, {"type": "Feature", "properties": {"name": "Hanekuda", "name_he": "הנקודה", "type": "outpost", "year": 1996}, "geometry": {"type": "Point", "coordinates": [35.319313, 32.169561]}}, {"type": "Feature", "properties": {"name": "Mount Gideon Hill 851", "name_he": "הר גדעון גבעה 851", "type": "outpost", "year": 1998}, "geometry": {"type": "Point", "coordinates": [35.335926, 32.166577]}}, {"type": "Feature", "properties": {"name": "Gvaot Olam", "name_he": "גבעות עולם", "type": "outpost", "year": 1998}, "geometry": {"type": "Point", "coordinates": [35.352544, 32.160319]}}, {"type": "Feature", "properties": {"name": "Yanukh Hill 836", "name_he": "גבעת ינוח 836", "type": "outpost", "year": 1998}, "geometry": {"type": "Point", "coordinates": [35.361254, 32.165843]}}, {"type": "Feature", "properties": {"name": "Itamar's farm", "name_he": "החווה של איתמר", "type": "farm", "year": 2013}, "geometry": {"type": "Point", "coordinates": [35.374159, 32.144754]}}, {"type": "Feature", "properties": {"name": "Tzofim North", "name_he": "צופים צפון", "type": "outpost", "year": 2012}, "geometry": {"type": "Point", "coordinates": [35.013353, 32.203056]}}, {"type": "Feature", "properties": {"name": "Shirat Haasabim", "name_he": "שירת העשבים", "type": "farm", "year": 2016}, "geometry": {"type": "Point", "coordinates": [35.50446, 32.364914]}}, {"type": "Feature", "properties": {"name": "Um Zuka", "name_he": "אום זוקא", "type": "farm", "year": 2016}, "geometry": {"type": "Point", "coordinates": [35.519047, 32.289165]}}, {"type": "Feature", "properties": {"name": "Midbar Hever Farm", "name_he": "חוות מדבר חבר", "type": "farm", "year": 2018}, "geometry": {"type": "Point", "coordinates": [35.164871, 31.478861]}}, {"type": "Feature", "properties": {"name": "Shabtai's Farm", "name_he": "החווה של שבתאי", "type": "farm", "year": 2017}, "geometry": {"type": "Point", "coordinates": [34.967466, 31.368554]}}, {"type": "Feature", "properties": {"name": "Neve Achi", "name_he": "נווה אחי", "type": "outpost", "year": 2017}, "geometry": {"type": "Point", "coordinates": [35.131672, 32.009174]}}, {"type": "Feature", "properties": {"name": "Sde Efrayim", "name_he": "שדה אפרים", "type": "farm", "year": 2018}, "geometry": {"type": "Point", "coordinates": [35.092102, 31.939829]}}, {"type": "Feature", "properties": {"name": "E1", "name_he": "E1", "type": "planned", "year": null}, "geometry": {"type": "Point", "coordinates": [35.285217, 31.795509]}}, {"type": "Feature", "properties": {"name": "Hashmonaim", "name_he": "חשמונאים", "type": "settlement", "year": 1985}, "geometry": {"type": "Point", "coordinates": [35.023618, 31.930948]}}, {"type": "Feature", "properties": {"name": "Hebron Settlement", "name_he": "חברון התנחלות", "type": "settlement", "year": 1978}, "geometry": {"type": "Point", "coordinates": [35.104872, 31.524739]}}, {"type": "Feature", "properties": {"name": "Leshem", "name_he": "לשם", "type": "settlement", "year": 2012}, "geometry": {"type": "Point", "coordinates": [35.049836, 32.068248]}}, {"type": "Feature", "properties": {"name": "Malachei Hashalom", "name_he": "מלאכי השלום", "type": "farm", "year": 2015}, "geometry": {"type": "Point", "coordinates": [35.364232, 32.024367]}}, {"type": "Feature", "properties": {"name": "Negohot Farm", "name_he": "חוות נגוהות", "type": "farm", "year": 2018}, "geometry": {"type": "Point", "coordinates": [34.97343, 31.491711]}}, {"type": "Feature", "properties": {"name": "Oz Vegaon", "name_he": "עוז וגאון", "type": "outpost", "year": 2014}, "geometry": {"type": "Point", "coordinates": [35.134256, 31.641877]}}, {"type": "Feature", "properties": {"name": "Eretz Bereshit", "name_he": "ארץ בראשית", "type": "tourism", "year": null}, "geometry": {"type": "Point", "coordinates": [35.352697, 31.828327]}}, {"type": "Feature", "properties": {"name": "Alon", "name_he": "אלון", "type": "settlement", "year": 1990}, "geometry": {"type": "Point", "coordinates": [35.354217, 31.833381]}}, {"type": "Feature", "properties": {"name": "Gadi Base", "name_he": "מחנה גדי", "type": "outpost", "year": 2018}, "geometry": {"type": "Point", "coordinates": [35.486634, 32.122834]}}, {"type": "Feature", "properties": {"name": "Mishpatei Aretz Inst.", "name_he": "מכון משפטי ארץ", "type": "outpost", "year": 2004}, "geometry": {"type": "Point", "coordinates": [35.252718, 31.94037]}}, {"type": "Feature", "properties": {"name": "Tkoa E", "name_he": "תקוע ה", "type": "farm", "year": 2019}, "geometry": {"type": "Point", "coordinates": [35.247168, 31.633108]}}, {"type": "Feature", "properties": {"name": "Beintayim Farm", "name_he": "חוות בינתיים", "type": "farm", "year": 2018}, "geometry": {"type": "Point", "coordinates": [35.508932, 32.318281]}}, {"type": "Feature", "properties": {"name": "Kahalit", "name_he": "כחלית", "type": "outpost", "year": 2018}, "geometry": {"type": "Point", "coordinates": [35.346002, 32.052084]}}, {"type": "Feature", "properties": {"name": "Yetedot Farm", "name_he": "חוות יתדות", "type": "farm", "year": 2018}, "geometry": {"type": "Point", "coordinates": [35.183349, 32.191698]}}, {"type": "Feature", "properties": {"name": "Eretz Haayalim", "name_he": "ארץ האיילים", "type": "tourism", "year": 2009}, "geometry": {"type": "Point", "coordinates": [35.112525, 31.66505]}}, {"type": "Feature", "properties": {"name": "Amihai", "name_he": "עמיחי", "type": "settlement", "year": 2018}, "geometry": {"type": "Point", "coordinates": [35.329033, 32.046057]}}, {"type": "Feature", "properties": {"name": "Motor Park Jordan Valley", "name_he": "פארק מוטורי בקעת הירדן", "type": "other", "year": 2017}, "geometry": {"type": "Point", "coordinates": [35.45324, 32.052391]}}, {"type": "Feature", "properties": {"name": "Nofei Prat 324", "name_he": "נופי פרת דרום ב", "type": "farm", "year": 2019}, "geometry": {"type": "Point", "coordinates": [35.318701, 31.805884]}}, {"type": "Feature", "properties": {"name": "Givat Hanan", "name_he": "גבעת חנן", "type": "outpost", "year": 2019}, "geometry": {"type": "Point", "coordinates": [35.123183, 31.390694]}}, {"type": "Feature", "properties": {"name": "Mikneh Yehuda Farm", "name_he": "חוות מקנה יהודה", "type": "farm", "year": 2018}, "geometry": {"type": "Point", "coordinates": [35.037164, 31.37439]}}, {"type": "Feature", "properties": {"name": "Lechathila Farm", "name_he": "חוות לכתחילה", "type": "farm", "year": 2019}, "geometry": {"type": "Point", "coordinates": [35.387733, 31.824384]}}, {"type": "Feature", "properties": {"name": "Kol Dodi", "name_he": "קול דודי", "type": "farm", "year": 2019}, "geometry": {"type": "Point", "coordinates": [35.342783, 31.94584]}}, {"type": "Feature", "properties": {"name": "Eretz Shemesh Farm", "name_he": "חוות ארץ שמש", "type": "farm", "year": 2019}, "geometry": {"type": "Point", "coordinates": [35.491332, 32.305476]}}, {"type": "Feature", "properties": {"name": "Makhrour Outpost", "name_he": "מאחז מחרור", "type": "farm", "year": 2019}, "geometry": {"type": "Point", "coordinates": [35.164743, 31.711985]}}, {"type": "Feature", "properties": {"name": "Megenzi Farm", "name_he": "חוות מגנזי", "type": "farm", "year": 2019}, "geometry": {"type": "Point", "coordinates": [35.04074, 31.961055]}}, {"type": "Feature", "properties": {"name": "Yad Achi", "name_he": "יד אחי", "type": "farm", "year": 2019}, "geometry": {"type": "Point", "coordinates": [35.145339, 32.007381]}}, {"type": "Feature", "properties": {"name": "Aeira Shachar (Habaladim)", "name_he": "אעירה שחר (הבלאדים)", "type": "outpost", "year": 2019}, "geometry": {"type": "Point", "coordinates": [35.37065, 31.950566]}}, {"type": "Feature", "properties": {"name": "Mitzpe Yehuda", "name_he": "מצפה יהודה", "type": "farm", "year": 2019}, "geometry": {"type": "Point", "coordinates": [35.31967, 31.735966]}}, {"type": "Feature", "properties": {"name": "Beit Al-Baraka", "name_he": "בית אלברכה", "type": "tourism", "year": 2015}, "geometry": {"type": "Point", "coordinates": [35.131637, 31.631807]}}, {"type": "Feature", "properties": {"name": "El Nave Farm", "name_he": "חוות אל נווה", "type": "farm", "year": 2019}, "geometry": {"type": "Point", "coordinates": [35.113239, 32.437959]}}, {"type": "Feature", "properties": {"name": "Shomre HaEmek", "name_he": "שומרי העמק", "type": "farm", "year": 2020}, "geometry": {"type": "Point", "coordinates": [35.322607, 32.040239]}}, {"type": "Feature", "properties": {"name": "Neriya's Farm", "name_he": "החווה של נריה", "type": "farm", "year": 2019}, "geometry": {"type": "Point", "coordinates": [35.335604, 31.925416]}}, {"type": "Feature", "properties": {"name": "Meshek Mann", "name_he": "משק מן", "type": "farm", "year": 2020}, "geometry": {"type": "Point", "coordinates": [35.176701, 31.416869]}}, {"type": "Feature", "properties": {"name": "Asfar South Nahalat Avot", "name_he": "אספר דרום נחלת אבות", "type": "farm", "year": 2020}, "geometry": {"type": "Point", "coordinates": [35.19405, 31.579117]}}, {"type": "Feature", "properties": {"name": "Kochav Ya'akov", "name_he": "כוכב יעקב", "type": "settlement", "year": 1985}, "geometry": {"type": "Point", "coordinates": [35.246175, 31.878172]}}, {"type": "Feature", "properties": {"name": "The New Farm of Micha", "name_he": "החווה של מיכה החדשה", "type": "farm", "year": 2020}, "geometry": {"type": "Point", "coordinates": [35.356433, 31.986233]}}, {"type": "Feature", "properties": {"name": "Nof Avi Farm", "name_he": "חוות נוף אב\"י", "type": "farm", "year": 2020}, "geometry": {"type": "Point", "coordinates": [35.152201, 32.089323]}}, {"type": "Feature", "properties": {"name": "Goshen Farm", "name_he": "חוות גושן", "type": "farm", "year": 2019}, "geometry": {"type": "Point", "coordinates": [35.529381, 32.254757]}}, {"type": "Feature", "properties": {"name": "Meged Haaretz Farm", "name_he": "חוות מגד הארץ", "type": "farm", "year": 2019}, "geometry": {"type": "Point", "coordinates": [35.066075, 32.292902]}}, {"type": "Feature", "properties": {"name": "Hashkedim Farm", "name_he": "חוות השקדים", "type": "farm", "year": 2014}, "geometry": {"type": "Point", "coordinates": [35.338392, 32.227294]}}, {"type": "Feature", "properties": {"name": "Eretz Hatzvi Farm", "name_he": "חוות ארץ הצבי", "type": "farm", "year": 2019}, "geometry": {"type": "Point", "coordinates": [35.138239, 31.97183]}}, {"type": "Feature", "properties": {"name": "koko's Farm", "name_he": "החווה של קוקו", "type": "farm", "year": 2020}, "geometry": {"type": "Point", "coordinates": [35.39186, 32.205443]}}, {"type": "Feature", "properties": {"name": "MItzpe Danny", "name_he": "מצפה דני", "type": "settlement", "year": 1999}, "geometry": {"type": "Point", "coordinates": [35.314463, 31.879054]}}, {"type": "Feature", "properties": {"name": "Alumot Farm Hill 782", "name_he": "חוות אלומות גבעה 782", "type": "outpost", "year": 1999}, "geometry": {"type": "Point", "coordinates": [35.332566, 32.159882]}}, {"type": "Feature", "properties": {"name": "Shaked Farm", "name_he": "חוות שקד", "type": "outpost", "year": 2002}, "geometry": {"type": "Point", "coordinates": [35.240785, 32.163039]}}, {"type": "Feature", "properties": {"name": "Tkuma Hill 725", "name_he": "גבעת תקומה 725", "type": "outpost", "year": 2001}, "geometry": {"type": "Point", "coordinates": [35.241082, 32.157922]}}, {"type": "Feature", "properties": {"name": "Mitzpe Yizhar", "name_he": "מצפה יצהר", "type": "outpost", "year": 2002}, "geometry": {"type": "Point", "coordinates": [35.249684, 32.156436]}}, {"type": "Feature", "properties": {"name": "Lehavat Yizhar", "name_he": "להבת יצהר", "type": "outpost", "year": 1998}, "geometry": {"type": "Point", "coordinates": [35.246849, 32.16375]}}, {"type": "Feature", "properties": {"name": "Givat Harel", "name_he": "גבעת הראל", "type": "outpost", "year": 1998}, "geometry": {"type": "Point", "coordinates": [35.274744, 32.05897]}}, {"type": "Feature", "properties": {"name": "Nokdim", "name_he": "נוקדים", "type": "settlement", "year": 1982}, "geometry": {"type": "Point", "coordinates": [35.246512, 31.646511]}}, {"type": "Feature", "properties": {"name": "Beit El", "name_he": "בית אל", "type": "settlement", "year": 1977}, "geometry": {"type": "Point", "coordinates": [35.224022, 31.940501]}}, {"type": "Feature", "properties": {"name": "Maaleh Ahuviya", "name_he": "מעלה אהוביה", "type": "farm", "year": 2020}, "geometry": {"type": "Point", "coordinates": [35.332665, 31.948641]}}, {"type": "Feature", "properties": {"name": "Moshe's Farm", "name_he": "החווה של משה", "type": "farm", "year": 2020}, "geometry": {"type": "Point", "coordinates": [35.422116, 32.211394]}}, {"type": "Feature", "properties": {"name": "Nahal Shilo Farm", "name_he": "חוות נחל שילה", "type": "farm", "year": 2020}, "geometry": {"type": "Point", "coordinates": [35.281853, 32.047829]}}, {"type": "Feature", "properties": {"name": "Nachal Kana Farm", "name_he": "חוות נחל קנה", "type": "farm", "year": 2020}, "geometry": {"type": "Point", "coordinates": [35.063008, 32.138113]}}, {"type": "Feature", "properties": {"name": "Rashash Farm", "name_he": "חוות רשש", "type": "farm", "year": 2020}, "geometry": {"type": "Point", "coordinates": [35.403755, 32.042516]}}, {"type": "Feature", "properties": {"name": "Ruti's hourse ranch", "name_he": "אצל רותי בחווה", "type": "farm", "year": 2020}, "geometry": {"type": "Point", "coordinates": [35.3511, 31.825848]}}, {"type": "Feature", "properties": {"name": "Adorayim", "name_he": "אדוריים", "type": "outpost", "year": 2019}, "geometry": {"type": "Point", "coordinates": [35.043267, 31.483929]}}, {"type": "Feature", "properties": {"name": "Meitarim Farm", "name_he": "חוות מיתרים", "type": "farm", "year": 2021}, "geometry": {"type": "Point", "coordinates": [34.999566, 31.363747]}}, {"type": "Feature", "properties": {"name": "Evyatar", "name_he": "אביתר", "type": "outpost", "year": 2021}, "geometry": {"type": "Point", "coordinates": [35.274881, 32.119768]}}, {"type": "Feature", "properties": {"name": "Eden Farm", "name_he": "חוות עדן", "type": "farm", "year": 2021}, "geometry": {"type": "Point", "coordinates": [35.13965, 31.687974]}}, {"type": "Feature", "properties": {"name": "Havat Yehuda", "name_he": "חוות יהודה", "type": "farm", "year": 2021}, "geometry": {"type": "Point", "coordinates": [35.004016, 31.385433]}}, {"type": "Feature", "properties": {"name": "Pnei Kedem Farm", "name_he": "חוות פני קדם", "type": "farm", "year": 2020}, "geometry": {"type": "Point", "coordinates": [35.21084, 31.581974]}}, {"type": "Feature", "properties": {"name": "Adis Elem Farm", "name_he": "חוות אדיס עלם", "type": "farm", "year": 2020}, "geometry": {"type": "Point", "coordinates": [34.986636, 31.836179]}}, {"type": "Feature", "properties": {"name": "Nofei Reihan Farm", "name_he": "חוות נופי ריחן", "type": "farm", "year": 2021}, "geometry": {"type": "Point", "coordinates": [35.141267, 32.466473]}}, {"type": "Feature", "properties": {"name": "Homesh", "name_he": "חומש", "type": "outpost", "year": 2019}, "geometry": {"type": "Point", "coordinates": [35.19169, 32.308578]}}, {"type": "Feature", "properties": {"name": "Omer Farm - Einot Kedem", "name_he": "חוות עומר - עינות קדם", "type": "farm", "year": 2005}, "geometry": {"type": "Point", "coordinates": [35.429076, 31.928908]}}, {"type": "Feature", "properties": {"name": "Rotem", "name_he": "רותם", "type": "settlement", "year": 2001}, "geometry": {"type": "Point", "coordinates": [35.519549, 32.336602]}}, {"type": "Feature", "properties": {"name": "Mitzpe Eshtamoa", "name_he": "מצפה אשתמוע", "type": "settlement", "year": 2003}, "geometry": {"type": "Point", "coordinates": [35.016019, 31.393136]}}, {"type": "Feature", "properties": {"name": "Shuvi Eretz", "name_he": "שובי ארץ", "type": "farm", "year": 2021}, "geometry": {"type": "Point", "coordinates": [35.112389, 32.144587]}}, {"type": "Feature", "properties": {"name": "Oz Zion", "name_he": "עוז ציון", "type": "outpost", "year": 2020}, "geometry": {"type": "Point", "coordinates": [35.249576, 31.908077]}}, {"type": "Feature", "properties": {"name": "Mevoot Yericho Farm", "name_he": "חוות מבואות יריחו", "type": "farm", "year": 2021}, "geometry": {"type": "Point", "coordinates": [35.420739, 31.910622]}}, {"type": "Feature", "properties": {"name": "Kfar Adumim", "name_he": "כפר אדומים", "type": "settlement", "year": 1979}, "geometry": {"type": "Point", "coordinates": [35.339907, 31.822511]}}, {"type": "Feature", "properties": {"name": "Pnei Kedem North Farm", "name_he": "חוות פני קדם צפון", "type": "farm", "year": 2021}, "geometry": {"type": "Point", "coordinates": [35.193208, 31.600344]}}, {"type": "Feature", "properties": {"name": "Mitzpe Yair Farm", "name_he": "חוות מצפה יאיר", "type": "farm", "year": 2013}, "geometry": {"type": "Point", "coordinates": [35.139577, 31.384444]}}, {"type": "Feature", "properties": {"name": "Ramat Migron", "name_he": "רמת מגרון", "type": "farm", "year": 2021}, "geometry": {"type": "Point", "coordinates": [35.268473, 31.886168]}}, {"type": "Feature", "properties": {"name": "Givat Hadegel", "name_he": "גבעת הדגל", "type": "outpost", "year": 2021}, "geometry": {"type": "Point", "coordinates": [35.104474, 31.394185]}}, {"type": "Feature", "properties": {"name": "Mechora South", "name_he": "מכורה דרום", "type": "farm", "year": 2021}, "geometry": {"type": "Point", "coordinates": [35.410837, 32.142917]}}, {"type": "Feature", "properties": {"name": "Zohar's farm", "name_he": "החווה של זוהר", "type": "farm", "year": 2021}, "geometry": {"type": "Point", "coordinates": [35.382721, 31.917124]}}, {"type": "Feature", "properties": {"name": "Givat Eitam", "name_he": "גבעת עיטם", "type": "farm", "year": 2018}, "geometry": {"type": "Point", "coordinates": [35.190458, 31.675084]}}, {"type": "Feature", "properties": {"name": "Ohavei Yah", "name_he": "אוהבי יה", "type": "outpost", "year": 2021}, "geometry": {"type": "Point", "coordinates": [35.086938, 31.658362]}}, {"type": "Feature", "properties": {"name": "Geulat Zion", "name_he": "גאולת ציון", "type": "outpost", "year": 2018}, "geometry": {"type": "Point", "coordinates": [35.323009, 32.046093]}}, {"type": "Feature", "properties": {"name": "Ahavat Olam Farm", "name_he": "חוות אהבת עולם", "type": "farm", "year": 2020}, "geometry": {"type": "Point", "coordinates": [35.267916, 31.955858]}}, {"type": "Feature", "properties": {"name": "Ori-Ad", "name_he": "אורי עד", "type": "outpost", "year": 2022}, "geometry": {"type": "Point", "coordinates": [35.160332, 32.234581]}}, {"type": "Feature", "properties": {"name": "Khan Gilgal", "name_he": "חאן גלגל", "type": "tourism", "year": 2015}, "geometry": {"type": "Point", "coordinates": [35.45205, 31.990776]}}, {"type": "Feature", "properties": {"name": "Mitzpe Bikaa Hashomer", "name_he": "מצפה בקעה השומר החדש", "type": "outpost", "year": 2022}, "geometry": {"type": "Point", "coordinates": [35.45337, 31.989199]}}, {"type": "Feature", "properties": {"name": "Avihai Farm", "name_he": "חוות אביחי", "type": "farm", "year": 2023}, "geometry": {"type": "Point", "coordinates": [35.0324, 32.04832]}}, {"type": "Feature", "properties": {"name": "Avia's Farm", "name_he": "חוות אביה", "type": "farm", "year": 2021}, "geometry": {"type": "Point", "coordinates": [35.111563, 32.454352]}}, {"type": "Feature", "properties": {"name": "Nahalat Zvi", "name_he": "נחלת צבי", "type": "outpost", "year": 2022}, "geometry": {"type": "Point", "coordinates": [35.298298, 31.870663]}}, {"type": "Feature", "properties": {"name": "Shorashim Farm", "name_he": "חוות שורשים", "type": "farm", "year": 2022}, "geometry": {"type": "Point", "coordinates": [35.19428, 31.437057]}}, {"type": "Feature", "properties": {"name": "Or Meir", "name_he": "אור מאיר", "type": "farm", "year": 2023}, "geometry": {"type": "Point", "coordinates": [35.251159, 31.934298]}}, {"type": "Feature", "properties": {"name": "Seo'rim Farm", "name_he": "חוות שעורים", "type": "farm", "year": 2023}, "geometry": {"type": "Point", "coordinates": [35.147619, 32.153827]}}, {"type": "Feature", "properties": {"name": "Harel Farm", "name_he": "חוות הראל", "type": "farm", "year": 2023}, "geometry": {"type": "Point", "coordinates": [35.249865, 31.629943]}}, {"type": "Feature", "properties": {"name": "Nachal Machoch Farm", "name_he": "חוות נחל מכוך", "type": "farm", "year": 2023}, "geometry": {"type": "Point", "coordinates": [35.335332, 31.907158]}}, {"type": "Feature", "properties": {"name": "Mevoot Yericho West", "name_he": "מבואות יריחו מערב", "type": "farm", "year": 2023}, "geometry": {"type": "Point", "coordinates": [35.37439, 31.908352]}}, {"type": "Feature", "properties": {"name": "Negohot North", "name_he": "נגוהות צפון", "type": "farm", "year": 2023}, "geometry": {"type": "Point", "coordinates": [34.985884, 31.500636]}}, {"type": "Feature", "properties": {"name": "Sde Yonatan", "name_he": "שדה יונתן", "type": "farm", "year": 2023}, "geometry": {"type": "Point", "coordinates": [35.278703, 31.888485]}}, {"type": "Feature", "properties": {"name": "Givat Haktoret", "name_he": "גבעת הקטורת", "type": "outpost", "year": 2023}, "geometry": {"type": "Point", "coordinates": [35.287576, 32.061174]}}, {"type": "Feature", "properties": {"name": "Asael North", "name_he": "עשהאל צפון", "type": "outpost", "year": 2023}, "geometry": {"type": "Point", "coordinates": [35.046802, 31.375757]}}, {"type": "Feature", "properties": {"name": "Jackson's farm", "name_he": "החווה של ג'קסון", "type": "farm", "year": 2023}, "geometry": {"type": "Point", "coordinates": [35.387122, 32.090698]}}, {"type": "Feature", "properties": {"name": "Ohana Farm", "name_he": "חוות אוחנה", "type": "farm", "year": 2023}, "geometry": {"type": "Point", "coordinates": [35.363309, 31.818343]}}, {"type": "Feature", "properties": {"name": "Bekaot South", "name_he": "בקעות דרום", "type": "farm", "year": 2023}, "geometry": {"type": "Point", "coordinates": [35.452338, 32.239164]}}, {"type": "Feature", "properties": {"name": "Bar Farm", "name_he": "חוות בר", "type": "farm", "year": 2023}, "geometry": {"type": "Point", "coordinates": [35.342162, 32.07117]}}, {"type": "Feature", "properties": {"name": "Fasael Outlook", "name_he": "מצפור פצאל", "type": "farm", "year": 2023}, "geometry": {"type": "Point", "coordinates": [35.418741, 32.055408]}}, {"type": "Feature", "properties": {"name": "Yahish Zion", "name_he": "יחיש ציון", "type": "outpost", "year": 2023}, "geometry": {"type": "Point", "coordinates": [35.231033, 31.90063]}}, {"type": "Feature", "properties": {"name": "Susya South", "name_he": "סוסיא דרום", "type": "outpost", "year": 2023}, "geometry": {"type": "Point", "coordinates": [35.099947, 31.38885]}}, {"type": "Feature", "properties": {"name": "Ruah Haaretz Farm", "name_he": "חוות רוח הארץ", "type": "farm", "year": 2023}, "geometry": {"type": "Point", "coordinates": [35.321656, 31.88108]}}, {"type": "Feature", "properties": {"name": "Shabo Farm", "name_he": "חוות שבו", "type": "farm", "year": 2023}, "geometry": {"type": "Point", "coordinates": [35.153782, 31.387067]}}, {"type": "Feature", "properties": {"name": "Avigail Farm", "name_he": "חוות אביגיל", "type": "farm", "year": 2022}, "geometry": {"type": "Point", "coordinates": [35.143426, 31.40152]}}, {"type": "Feature", "properties": {"name": "Old Maon Farm", "name_he": "חוות מעון הישנה", "type": "farm", "year": 2023}, "geometry": {"type": "Point", "coordinates": [35.168389, 31.401373]}}, {"type": "Feature", "properties": {"name": "Battir Outpost", "name_he": "מאחז בתיר", "type": "farm", "year": 2023}, "geometry": {"type": "Point", "coordinates": [35.152893, 31.715965]}}, {"type": "Feature", "properties": {"name": "Giva't Alufe Yehuda", "name_he": "גבעת אלופי יהודה", "type": "farm", "year": 2023}, "geometry": {"type": "Point", "coordinates": [35.201062, 31.606036]}}, {"type": "Feature", "properties": {"name": "Yinon's Farm", "name_he": "החווה של ינון", "type": "farm", "year": 2023}, "geometry": {"type": "Point", "coordinates": [35.314685, 31.856702]}}, {"type": "Feature", "properties": {"name": "Mitzpe Midrag", "name_he": "מצפה מדרג", "type": "outpost", "year": 2022}, "geometry": {"type": "Point", "coordinates": [35.247882, 31.44288]}}, {"type": "Feature", "properties": {"name": "Daroma Farm", "name_he": "חוות דרומא", "type": "farm", "year": 2023}, "geometry": {"type": "Point", "coordinates": [35.146008, 31.396968]}}, {"type": "Feature", "properties": {"name": "Masu'a West", "name_he": "משואה מערב", "type": "farm", "year": 2023}, "geometry": {"type": "Point", "coordinates": [35.481195, 32.11715]}}, {"type": "Feature", "properties": {"name": "Kochav Hashahar West", "name_he": "כוכב השחר מערב", "type": "outpost", "year": 2023}, "geometry": {"type": "Point", "coordinates": [35.33831, 31.950154]}}, {"type": "Feature", "properties": {"name": "Simhovitz Farm", "name_he": "חוות שמחוביץ", "type": "farm", "year": 2023}, "geometry": {"type": "Point", "coordinates": [35.123227, 31.37539]}}, {"type": "Feature", "properties": {"name": "Maoz Ester", "name_he": "מעוז אסתר", "type": "outpost", "year": 2008}, "geometry": {"type": "Point", "coordinates": [35.34788, 31.967982]}}, {"type": "Feature", "properties": {"name": "Nofei Elhanan", "name_he": "נופי אלחנן", "type": "outpost", "year": 2023}, "geometry": {"type": "Point", "coordinates": [35.132397, 32.281434]}}, {"type": "Feature", "properties": {"name": "Tekoa' F", "name_he": "תקוע ו", "type": "outpost", "year": 2024}, "geometry": {"type": "Point", "coordinates": [35.251405, 31.631277]}}, {"type": "Feature", "properties": {"name": "Har Za'rur Farm", "name_he": "חוות הר זערור", "type": "farm", "year": 2024}, "geometry": {"type": "Point", "coordinates": [35.250897, 31.621129]}}, {"type": "Feature", "properties": {"name": "Kumi Uri", "name_he": "קומי אורי", "type": "outpost", "year": 2014}, "geometry": {"type": "Point", "coordinates": [35.236161, 32.158189]}}, {"type": "Feature", "properties": {"name": "Har Sinai Farm", "name_he": "חוות הר סיני", "type": "farm", "year": 2001}, "geometry": {"type": "Point", "coordinates": [35.107708, 31.390606]}}, {"type": "Feature", "properties": {"name": "Gal Yossef", "name_he": "גל יוסף", "type": "outpost", "year": 2024}, "geometry": {"type": "Point", "coordinates": [35.360355, 32.036576]}}, {"type": "Feature", "properties": {"name": "Emek Dotan Farm", "name_he": "חוות עמק דותן", "type": "farm", "year": 2007}, "geometry": {"type": "Point", "coordinates": [35.165847, 32.423772]}}, {"type": "Feature", "properties": {"name": "Tzur Harel Farm", "name_he": "חוות צור הראל", "type": "farm", "year": 2024}, "geometry": {"type": "Point", "coordinates": [35.2436, 31.906268]}}, {"type": "Feature", "properties": {"name": "Hamevaser", "name_he": "המבשר", "type": "industrial", "year": null}, "geometry": {"type": "Point", "coordinates": [35.123746, 31.552119]}}, {"type": "Feature", "properties": {"name": "Amona Farm", "name_he": "חוות עמונה", "type": "outpost", "year": 2024}, "geometry": {"type": "Point", "coordinates": [35.280481, 31.954452]}}, {"type": "Feature", "properties": {"name": "Tzreda Farm", "name_he": "חוות צרדה", "type": "farm", "year": 2022}, "geometry": {"type": "Point", "coordinates": [35.049984, 32.058535]}}, {"type": "Feature", "properties": {"name": "Khan Ushpizin", "name_he": "חאן האושפיזין", "type": "farm", "year": 2024}, "geometry": {"type": "Point", "coordinates": [35.248493, 31.626101]}}, {"type": "Feature", "properties": {"name": "Tamir's Farm", "name_he": "החווה של משפחת טמיר", "type": "farm", "year": 2024}, "geometry": {"type": "Point", "coordinates": [35.430564, 31.911872]}}, {"type": "Feature", "properties": {"name": "Nili", "name_he": "נילי", "type": "settlement", "year": 1981}, "geometry": {"type": "Point", "coordinates": [35.046155, 31.962921]}}, {"type": "Feature", "properties": {"name": "Ahavat Olam farm", "name_he": "חוות אהבת עולם", "type": "farm", "year": 2024}, "geometry": {"type": "Point", "coordinates": [35.176336, 31.482247]}}, {"type": "Feature", "properties": {"name": "Hoshen", "name_he": "חושן", "type": "outpost", "year": 2024}, "geometry": {"type": "Point", "coordinates": [35.250576, 32.055718]}}, {"type": "Feature", "properties": {"name": "Yeshuv HaDaa't", "name_he": "ישוב הדעת", "type": "outpost", "year": 2001}, "geometry": {"type": "Point", "coordinates": [35.340508, 32.04589]}}, {"type": "Feature", "properties": {"name": "Hahava BeYizhar", "name_he": "החווה ביצהר", "type": "farm", "year": 2021}, "geometry": {"type": "Point", "coordinates": [35.250509, 32.162496]}}, {"type": "Feature", "properties": {"name": "Nahalat Ami", "name_he": "נחלת עמי", "type": "settlement", "year": 1996}, "geometry": {"type": "Point", "coordinates": [35.033894, 31.439477]}}, {"type": "Feature", "properties": {"name": "Or HaOrot Hill 825", "name_he": "אור האורות גבעה 825", "type": "outpost", "year": 1998}, "geometry": {"type": "Point", "coordinates": [35.342906, 32.164953]}}, {"type": "Feature", "properties": {"name": "Giva't Yavo Dodi", "name_he": "גבעת יבוא דודי", "type": "farm", "year": 2024}, "geometry": {"type": "Point", "coordinates": [35.145855, 31.966908]}}, {"type": "Feature", "properties": {"name": "Elhai Farm", "name_he": "חוות אלחי", "type": "farm", "year": 2023}, "geometry": {"type": "Point", "coordinates": [35.153985, 32.273426]}}, {"type": "Feature", "properties": {"name": "Tel Hemed Farm", "name_he": "חוות תל חמד", "type": "farm", "year": 2022}, "geometry": {"type": "Point", "coordinates": [35.099681, 32.083176]}}, {"type": "Feature", "properties": {"name": "Kochav Hashahar Quarry Farm", "name_he": "חוות מחצבת כוכב השחר", "type": "farm", "year": 2024}, "geometry": {"type": "Point", "coordinates": [35.334915, 31.999095]}}, {"type": "Feature", "properties": {"name": "Nahalat Ami - North", "name_he": "נחלת עמי צפון", "type": "outpost", "year": 2024}, "geometry": {"type": "Point", "coordinates": [35.036431, 31.443577]}}, {"type": "Feature", "properties": {"name": "Asael South Farm", "name_he": "חוות עשהאל דרום", "type": "farm", "year": 2022}, "geometry": {"type": "Point", "coordinates": [35.03771, 31.3609]}}, {"type": "Feature", "properties": {"name": "Beit Eliyahu", "name_he": "בית אליהו", "type": "outpost", "year": 2024}, "geometry": {"type": "Point", "coordinates": [35.483298, 32.138943]}}, {"type": "Feature", "properties": {"name": "Hagoshen South Farm", "name_he": "חוות הגושן דרום", "type": "farm", "year": 2022}, "geometry": {"type": "Point", "coordinates": [35.54435, 32.223686]}}, {"type": "Feature", "properties": {"name": "The New Tzerda farm", "name_he": "חוות צרדה החדשה", "type": "farm", "year": 2024}, "geometry": {"type": "Point", "coordinates": [35.062323, 32.053502]}}, {"type": "Feature", "properties": {"name": "Umm Jamal", "name_he": "אום ג'מאל", "type": "farm", "year": 2024}, "geometry": {"type": "Point", "coordinates": [35.491364, 32.330393]}}, {"type": "Feature", "properties": {"name": "Rosh Hatee'na Farm", "name_he": "חוות ראש התאנה", "type": "farm", "year": 2023}, "geometry": {"type": "Point", "coordinates": [35.370487, 32.005542]}}, {"type": "Feature", "properties": {"name": "Tomer West Farm", "name_he": "חוות תומר מערב", "type": "farm", "year": 2024}, "geometry": {"type": "Point", "coordinates": [35.430172, 32.021411]}}, {"type": "Feature", "properties": {"name": "Netiv Hagdud Farm", "name_he": "חוות נתיב הגדוד", "type": "farm", "year": 2024}, "geometry": {"type": "Point", "coordinates": [35.435242, 31.985164]}}, {"type": "Feature", "properties": {"name": "Hananya Farm", "name_he": "חוות חנניה", "type": "farm", "year": 2024}, "geometry": {"type": "Point", "coordinates": [35.304894, 31.894592]}}, {"type": "Feature", "properties": {"name": "Or Ahuvia", "name_he": "אור אהוביה", "type": "outpost", "year": 2024}, "geometry": {"type": "Point", "coordinates": [35.268685, 31.937271]}}, {"type": "Feature", "properties": {"name": "Avigail gate", "name_he": "שער אביגיל", "type": "outpost", "year": 2024}, "geometry": {"type": "Point", "coordinates": [35.146952, 31.404156]}}, {"type": "Feature", "properties": {"name": "Gitit East", "name_he": "גיתית מזרח", "type": "farm", "year": 2024}, "geometry": {"type": "Point", "coordinates": [35.402091, 32.104196]}}, {"type": "Feature", "properties": {"name": "Oz Yosef", "name_he": "עוז יוסף", "type": "farm", "year": 2024}, "geometry": {"type": "Point", "coordinates": [35.312709, 32.181427]}}, {"type": "Feature", "properties": {"name": "Mizpe Moti", "name_he": "מצפה מוטי", "type": "outpost", "year": 2024}, "geometry": {"type": "Point", "coordinates": [35.107158, 32.140318]}}, {"type": "Feature", "properties": {"name": "Gofna", "name_he": "גופנה", "type": "outpost", "year": 2024}, "geometry": {"type": "Point", "coordinates": [35.127022, 31.97799]}}, {"type": "Feature", "properties": {"name": "Ofra South-East", "name_he": "עפרה דרום מזרח", "type": "farm", "year": 2024}, "geometry": {"type": "Point", "coordinates": [35.278356, 31.943609]}}, {"type": "Feature", "properties": {"name": "Magenzi B Farm", "name_he": "חוות מגנזי ב'", "type": "farm", "year": 2024}, "geometry": {"type": "Point", "coordinates": [35.030319, 31.961122]}}, {"type": "Feature", "properties": {"name": "Khan al-Ahmar Farm", "name_he": "חוות ח'אן אל אחמר", "type": "farm", "year": 2024}, "geometry": {"type": "Point", "coordinates": [35.336222, 31.81036]}}, {"type": "Feature", "properties": {"name": "Keshet Farm", "name_he": "חוות קשת", "type": "farm", "year": 2024}, "geometry": {"type": "Point", "coordinates": [34.977646, 31.374183]}}, {"type": "Feature", "properties": {"name": "Ofarim South", "name_he": "עופרים דרום", "type": "farm", "year": 2024}, "geometry": {"type": "Point", "coordinates": [35.034612, 32.003606]}}, {"type": "Feature", "properties": {"name": "The Blue Hut", "name_he": "הבית הכחול", "type": "outpost", "year": 2024}, "geometry": {"type": "Point", "coordinates": [35.202898, 31.594598]}}, {"type": "Feature", "properties": {"name": "Maale Rehava'm South", "name_he": "מעלה רחבעם דרום", "type": "farm", "year": 2024}, "geometry": {"type": "Point", "coordinates": [35.259827, 31.644293]}}, {"type": "Feature", "properties": {"name": "Adora East", "name_he": "אדורה מזרח", "type": "outpost", "year": 2024}, "geometry": {"type": "Point", "coordinates": [35.025757, 31.554827]}}, {"type": "Feature", "properties": {"name": "Telem Forest", "name_he": "יער תלם", "type": "outpost", "year": 2024}, "geometry": {"type": "Point", "coordinates": [35.037882, 31.571241]}}, {"type": "Feature", "properties": {"name": "Mizpe Yair North", "name_he": "מצפה יאיר צפון", "type": "farm", "year": 2024}, "geometry": {"type": "Point", "coordinates": [35.141487, 31.387776]}}, {"type": "Feature", "properties": {"name": "Shavei Shomron Farm", "name_he": "חוות שבי שומרון", "type": "farm", "year": 2024}, "geometry": {"type": "Point", "coordinates": [35.177054, 32.266015]}}, {"type": "Feature", "properties": {"name": "Yitav North Farm", "name_he": "חוות ייטב צפון", "type": "farm", "year": 2024}, "geometry": {"type": "Point", "coordinates": [35.410448, 31.95028]}}, {"type": "Feature", "properties": {"name": "Haarmonot Farm", "name_he": "חוות הארמונות", "type": "farm", "year": 2024}, "geometry": {"type": "Point", "coordinates": [35.429849, 31.868398]}}, {"type": "Feature", "properties": {"name": "Sde Boaz North", "name_he": "שדה בועז צפון", "type": "farm", "year": 2024}, "geometry": {"type": "Point", "coordinates": [35.139041, 31.700768]}}, {"type": "Feature", "properties": {"name": "Malkishua South", "name_he": "מלכישוע דרום", "type": "farm", "year": 2024}, "geometry": {"type": "Point", "coordinates": [35.404637, 32.439358]}}, {"type": "Feature", "properties": {"name": "Eretz Kama Farm", "name_he": "חוות ארץ קמה", "type": "farm", "year": 2024}, "geometry": {"type": "Point", "coordinates": [35.120938, 32.415623]}}, {"type": "Feature", "properties": {"name": "Mizpe Yair South", "name_he": "מצפה יאיר דרום", "type": "outpost", "year": 2023}, "geometry": {"type": "Point", "coordinates": [35.130663, 31.377144]}}, {"type": "Feature", "properties": {"name": "Ariel Farm South-West", "name_he": "חוות אריאל דרום מערב", "type": "farm", "year": 2024}, "geometry": {"type": "Point", "coordinates": [35.136196, 32.078336]}}, {"type": "Feature", "properties": {"name": "Talmonim North", "name_he": "טלמונים צפון", "type": "outpost", "year": 2024}, "geometry": {"type": "Point", "coordinates": [35.131017, 31.943671]}}]}