{
"type": "FeatureCollection",
"name": "west_bank_boundary",
"crs": { "type": "name", "properties": { "name": "urn:ogc:def:crs:OGC:1.3:CRS84" } },
"features": [
{ "type": "Feature", "properties": { "adm1_name": "West Bank", "adm1_pcode": "PS01" }, "geometry": { "type": "Polygon", "coordinates": [ [ [ 35.251820208000026, 32.523567218000153 ], [ 35.236485976000154, 32.536215198000036 ], [ 35.224498660000052, 32.552394432000028 ], [ 35.21620365900003, 32.548006854999983 ], [ 35.215978665000023, 32.546087410000098 ], [ 35.214575958000069, 32.544517562000067 ], [ 35.205098728000166, 32.541422707000038 ], [ 35.20183931300005, 32.53952698300003 ], [ 35.196914873000082, 32.535570348000135 ], [ 35.19554564200007, 32.532818716000179 ], [ 35.187103463000085, 32.523747136000111 ], [ 35.180486310000163, 32.524374759000068 ], [ 35.177761145000034, 32.521326551000129 ], [ 35.177358452000192, 32.518479306000188 ], [ 35.167717302000028, 32.510929464000071 ], [ 35.164052613000138, 32.508910729000092 ], [ 35.160633034000114, 32.504232948000038 ], [ 35.155742184000076, 32.503051669000058 ], [ 35.144774305000055, 32.496338084000172 ], [ 35.138979665000193, 32.49637881200016 ], [ 35.137837981000075, 32.494539552000049 ], [ 35.140001294000115, 32.493496043000107 ], [ 35.128271881000103, 32.486411132000171 ], [ 35.125718591000066, 32.483980022000139 ], [ 35.119262437000032, 32.481119539000133 ], [ 35.113234664000174, 32.479529270000114 ], [ 35.112461307000046, 32.478080496000132 ], [ 35.108961453000177, 32.476174551000099 ], [ 35.106876881000176, 32.475593588000038 ], [ 35.105182195000111, 32.477341709000029 ], [ 35.10217497300016, 32.478222979000122 ], [ 35.098228422000034, 32.477986283000064 ], [ 35.092486423000025, 32.476175754999986 ], [ 35.085845280000058, 32.469102460000158 ], [ 35.08237183100016, 32.467962858000192 ], [ 35.075028469000074, 32.461843841000075 ], [ 35.072257214000047, 32.458373254000037 ], [ 35.073518328000091, 32.456043742000077 ], [ 35.072458477000055, 32.454057857000123 ], [ 35.067850601000032, 32.452086829000109 ], [ 35.066099033000057, 32.450373441000124 ], [ 35.065435077000188, 32.448890827000184 ], [ 35.065654872000152, 32.443167444000096 ], [ 35.06061994200013, 32.436765752000156 ], [ 35.061112334000029, 32.435614202000068 ], [ 35.060226950000128, 32.434020826000051 ], [ 35.059843450000187, 32.429693032999978 ], [ 35.05653423900003, 32.4235671510001 ], [ 35.057014601000162, 32.419432737000136 ], [ 35.054463098000156, 32.417871774000048 ], [ 35.053599936000182, 32.41636981900001 ], [ 35.054136429000039, 32.412296490000074 ], [ 35.055171855000083, 32.41195116900019 ], [ 35.053886053000099, 32.40299912100005 ], [ 35.049157758000149, 32.39659957300006 ], [ 35.04898509800006, 32.393887146999987 ], [ 35.047104403000162, 32.390295665000053 ], [ 35.044890200000168, 32.389615858000184 ], [ 35.044130267000071, 32.386582093000072 ], [ 35.040142818000106, 32.380757494000193 ], [ 35.041802078000103, 32.377767985000162 ], [ 35.048951389000024, 32.376606969000193 ], [ 35.051481754000065, 32.367254917000025 ], [ 35.05069403400006, 32.364236359000188 ], [ 35.048216856000067, 32.359846046000143 ], [ 35.044177718000185, 32.359037171000068 ], [ 35.041056924000088, 32.355351633000112 ], [ 35.042103509000071, 32.349339070000099 ], [ 35.040853345000016, 32.346663199000147 ], [ 35.038370803000134, 32.345752253000057 ], [ 35.034390849000033, 32.345854500000087 ], [ 35.028543284000136, 32.347088180000014 ], [ 35.026948959000151, 32.340263087000096 ], [ 35.019871737000017, 32.341127646000132 ], [ 35.016356847000168, 32.338690692000114 ], [ 35.015156011000101, 32.311580169000081 ], [ 35.012750334000145, 32.307704516000172 ], [ 35.012614640000095, 32.305799589000173 ], [ 35.01238063500017, 32.294370231000073 ], [ 35.013682010000139, 32.293664577000129 ], [ 35.008845701000098, 32.281409849000113 ], [ 35.012258531000043, 32.27967330700011 ], [ 35.014409223000143, 32.279537337000079 ], [ 35.016064552000046, 32.280601907000062 ], [ 35.020071448000124, 32.279436169000064 ], [ 35.022549856000012, 32.276991995000174 ], [ 35.023438155000065, 32.274841867000077 ], [ 35.025855533000083, 32.27391422300002 ], [ 35.030548053000189, 32.265874320000137 ], [ 35.028625766000062, 32.260551855000017 ], [ 35.026093288000141, 32.25939865700019 ], [ 35.023821208000072, 32.255033888000071 ], [ 35.023994347000098, 32.248827880000135 ], [ 35.019152634000136, 32.242407461000141 ], [ 35.020037985000101, 32.240116577000151 ], [ 35.020280760000048, 32.234407778000048 ], [ 35.017773246000047, 32.233520052000131 ], [ 35.014194701000179, 32.235614964000092 ], [ 35.010940736000123, 32.23275763900017 ], [ 35.010396312000012, 32.231713089000095 ], [ 35.010915959000158, 32.230986428999984 ], [ 35.005407288000072, 32.224332900000093 ], [ 34.992149708000056, 32.213527364000072 ], [ 34.989007955000034, 32.207535514000085 ], [ 34.986841902000151, 32.206642703000171 ], [ 34.984832368000127, 32.206804811000097 ], [ 34.982606148000173, 32.204156849000015 ], [ 34.977689339000051, 32.20296704499998 ], [ 34.975258054000051, 32.200654489000158 ], [ 34.97312540900009, 32.200281304999976 ], [ 34.970279161000121, 32.200990987000125 ], [ 34.964520692000178, 32.200102994000076 ], [ 34.96104052700008, 32.197366097000042 ], [ 34.960100423000085, 32.193584728000076 ], [ 34.959376485000064, 32.19357468600009 ], [ 34.957075903000145, 32.190341648000128 ], [ 34.959461090000048, 32.17596111600011 ], [ 34.961812445000191, 32.173736380000037 ], [ 34.964496273000179, 32.173189594000121 ], [ 34.964111170000024, 32.169065373000024 ], [ 34.967001335000134, 32.169108766000136 ], [ 34.97072162700016, 32.166515219000019 ], [ 34.970476475999988, 32.164749906000054 ], [ 34.97426759200016, 32.162398042000177 ], [ 34.977207815000156, 32.15892738000008 ], [ 34.977205331000164, 32.157700084000112 ], [ 34.974302762000036, 32.152490437000097 ], [ 34.979327664000152, 32.148841711000046 ], [ 34.986432481000122, 32.148626450000052 ], [ 34.990464138, 32.142242339000063 ], [ 34.989153050000084, 32.138880825000058 ], [ 34.987575819000028, 32.138406284000155 ], [ 34.988701777000131, 32.134257870000113 ], [ 34.98556489900011, 32.130353972000023 ], [ 34.98525163700009, 32.126258097000175 ], [ 34.986090988, 32.123096096000097 ], [ 34.988952460000178, 32.119439424000063 ], [ 34.988986797000052, 32.115124909000031 ], [ 34.993236920000129, 32.11049789000009 ], [ 34.99339040000018, 32.107854452000026 ], [ 34.992403574000093, 32.105910902000176 ], [ 34.989891664000083, 32.104777007000052 ], [ 34.990738099000055, 32.1025094580001 ], [ 34.985829349000142, 32.100619953000034 ], [ 34.985453073000087, 32.095394430999988 ], [ 34.983930484000155, 32.093822269000157 ], [ 34.98252138700019, 32.089910665000161 ], [ 34.983572250000179, 32.088916068000174 ], [ 34.986414787000058, 32.089267654000139 ], [ 34.993128613000124, 32.068937406000032 ], [ 34.998501728000178, 32.055845625000131 ], [ 35.003859516999967, 32.03437272300016 ], [ 35.005157792000034, 32.020729915000061 ], [ 34.999289080000096, 32.017177041000082 ], [ 34.998772405000068, 32.012609162000047 ], [ 34.999385884000105, 31.995524479000153 ], [ 34.99422451200013, 31.972939961000066 ], [ 34.98684224100009, 31.970623900000191 ], [ 34.987069005000023, 31.967789747000097 ], [ 34.983388978000107, 31.967318733000184 ], [ 34.980575145000046, 31.968164590000129 ], [ 34.980847776000132, 31.965571773000079 ], [ 34.982177403000151, 31.961990413000024 ], [ 34.989201750000177, 31.952707630000191 ], [ 34.991053574000091, 31.949136384000099 ], [ 34.994851323000034, 31.933980070000132 ], [ 34.996857573999989, 31.92954013200017 ], [ 35.007263513000112, 31.921525951999968 ], [ 35.021005031000186, 31.918394465000119 ], [ 35.022689131000106, 31.916726761000177 ], [ 35.023883591000185, 31.913149661000148 ], [ 35.025434223000047, 31.897245110000028 ], [ 35.027456439, 31.891611575000127 ], [ 35.02466857100012, 31.887579095999968 ], [ 35.024212284999976, 31.885526882000192 ], [ 35.027407281000194, 31.880490000000179 ], [ 35.026893728000061, 31.869489615000077 ], [ 35.01207224500007, 31.869593566000106 ], [ 35.005004001000032, 31.870622045000175 ], [ 34.999963610000123, 31.87024398200009 ], [ 34.98820832500013, 31.868442132000041 ], [ 34.959528382000087, 31.86164461400017 ], [ 34.956690384000126, 31.858571139000162 ], [ 34.955833046000066, 31.856108375000133 ], [ 34.957517961000121, 31.851330588000167 ], [ 34.958779954000192, 31.840803811 ], [ 34.962183995000032, 31.829617950000056 ], [ 34.968937618000041, 31.821541052000043 ], [ 34.974043349000169, 31.818012786000168 ], [ 34.979777845000172, 31.816232935000073 ], [ 34.98642674000007, 31.816195859000175 ], [ 34.995282603000192, 31.818608194000035 ], [ 35.007190419999972, 31.819614318000163 ], [ 35.026793854000175, 31.81786039900004 ], [ 35.030761029000075, 31.818114826000055 ], [ 35.035208058000194, 31.819884054000056 ], [ 35.043221979000066, 31.825412279000147 ], [ 35.055123188000096, 31.85104488200011 ], [ 35.080195021000179, 31.840076187000193 ], [ 35.104696545000081, 31.827033988000153 ], [ 35.104943347000074, 31.825269250000133 ], [ 35.111090348, 31.824733168000193 ], [ 35.120390748000034, 31.825361499000053 ], [ 35.12553850900008, 31.823041714000055 ], [ 35.135080444000096, 31.816132769000092 ], [ 35.146888830000137, 31.811960976000194 ], [ 35.162894732000154, 31.809077875000128 ], [ 35.176078456000141, 31.807900156000073 ], [ 35.196764082000129, 31.809795539000163 ], [ 35.205040315000076, 31.807977906000133 ], [ 35.210071642000059, 31.805248150000068 ], [ 35.217230205000021, 31.804889717000151 ], [ 35.223875693000082, 31.800582929000143 ], [ 35.224151992000145, 31.797459811000181 ], [ 35.224951256, 31.796451208000121 ], [ 35.223811474000058, 31.796384241000169 ], [ 35.22689193399998, 31.791457543000035 ], [ 35.227178509000169, 31.788380916000108 ], [ 35.227452834000076, 31.784192613000073 ], [ 35.226562097000169, 31.782777085000191 ], [ 35.227546597000071, 31.780584895000175 ], [ 35.225510750000126, 31.779332534 ], [ 35.225503152000044, 31.776989538000123 ], [ 35.227718683000091, 31.772898521000116 ], [ 35.229767328000037, 31.772620085000028 ], [ 35.230095646000052, 31.771255912000186 ], [ 35.228102578000176, 31.764590181000131 ], [ 35.22864502800013, 31.76165561900018 ], [ 35.228064652000057, 31.756954329 ], [ 35.227695469000139, 31.756453633000149 ], [ 35.226580900000044, 31.757356327000082 ], [ 35.225169445000063, 31.75709684200018 ], [ 35.224325726000131, 31.751043756000115 ], [ 35.225005926000108, 31.750580148000097 ], [ 35.224629341000139, 31.747454042000072 ], [ 35.223180783000146, 31.745892266000169 ], [ 35.22426616700011, 31.744556918000171 ], [ 35.227479447, 31.744655635000072 ], [ 35.225671279000153, 31.742221167000082 ], [ 35.224027375000048, 31.73671433700008 ], [ 35.222615039000061, 31.734598045000155 ], [ 35.220863749000102, 31.733936718000052 ], [ 35.218637036000189, 31.734274979000077 ], [ 35.215119344000072, 31.736930816000154 ], [ 35.211455320000141, 31.745117921000144 ], [ 35.209102237000081, 31.748073807000139 ], [ 35.206041015000096, 31.748793144000047 ], [ 35.203116371000192, 31.746945497000183 ], [ 35.201104717000192, 31.746720366000147 ], [ 35.199384349000127, 31.747311559000138 ], [ 35.197490991000166, 31.749858619000179 ], [ 35.196288060000029, 31.750303982000162 ], [ 35.191862283000034, 31.745976961000167 ], [ 35.18641900800003, 31.747663800000055 ], [ 35.181877968000038, 31.743611194000096 ], [ 35.174894347000134, 31.741454745000112 ], [ 35.165245906, 31.741913063000027 ], [ 35.162971805000041, 31.742564507000111 ], [ 35.16103788300012, 31.744673819000184 ], [ 35.158756604000075, 31.744734957999981 ], [ 35.153705316000128, 31.738203762000126 ], [ 35.148389091000183, 31.735808746000032 ], [ 35.140973074000044, 31.729061004000073 ], [ 35.13810241300007, 31.728703629000051 ], [ 35.136729756000136, 31.729423329000099 ], [ 35.135237087000178, 31.734492455000122 ], [ 35.131415532000062, 31.733224809000035 ], [ 35.127695627000037, 31.730886366000107 ], [ 35.123742002000029, 31.725197016999971 ], [ 35.121263876000171, 31.720815599000048 ], [ 35.120549839000148, 31.715478026000085 ], [ 35.117338592000067, 31.713671879000117 ], [ 35.108615894000081, 31.715320373999987 ], [ 35.105809362000059, 31.714573040000175 ], [ 35.099771153000063, 31.708825170000125 ], [ 35.093256298000028, 31.700788008000188 ], [ 35.085714487000189, 31.695910255000115 ], [ 35.084680903000105, 31.693276901000161 ], [ 35.085211786000059, 31.690712251999969 ], [ 35.069024601000024, 31.684139671000025 ], [ 35.051698479000152, 31.672640880000074 ], [ 35.026404746000139, 31.658389723000028 ], [ 35.022688531000028, 31.657895210000049 ], [ 35.007800081000084, 31.653250790000129 ], [ 35.00435372100003, 31.651108638000039 ], [ 34.996127944000193, 31.644429447000107 ], [ 34.989081114000157, 31.636541236000141 ], [ 34.975713406000068, 31.61818603 ], [ 34.952242905000105, 31.594543470000133 ], [ 34.947640512000078, 31.581488420000142 ], [ 34.945270968000102, 31.56407359800005 ], [ 34.943805536000184, 31.56200113500006 ], [ 34.943116050000185, 31.554798290000178 ], [ 34.941653704000146, 31.55063822700015 ], [ 34.942233014000124, 31.528020866000077 ], [ 34.940151247000074, 31.524198302000173 ], [ 34.944316889000163, 31.508266767000123 ], [ 34.939366830000097, 31.489649029000134 ], [ 34.925891339000088, 31.464853114000107 ], [ 34.911724365000111, 31.450719525000181 ], [ 34.905544538000129, 31.442743316000019 ], [ 34.898331808000194, 31.436539540000126 ], [ 34.893421922000186, 31.423179384000093 ], [ 34.885313851000149, 31.409037104000049 ], [ 34.880551435000143, 31.392596714000092 ], [ 34.881022847000054, 31.389761796000187 ], [ 34.886648064000156, 31.382267836000096 ], [ 34.889087657000118, 31.373881554000036 ], [ 34.892123926000068, 31.368804028000056 ], [ 34.897588263000046, 31.363853379000147 ], [ 34.90948497200003, 31.355982814000072 ], [ 34.911075996000193, 31.353948519000028 ], [ 34.910709281000152, 31.350351290000049 ], [ 34.911901236000062, 31.349172582000051 ], [ 34.921938830000158, 31.342918784000062 ], [ 34.928852012000164, 31.343229602000179 ], [ 34.947382976000085, 31.34776646500012 ], [ 34.975041212000065, 31.350843706000092 ], [ 35.001621594000028, 31.356781100000035 ], [ 35.018877132000057, 31.358738901000095 ], [ 35.070544540000071, 31.357756417000189 ], [ 35.09867685200004, 31.355781272000058 ], [ 35.112775403000114, 31.356523650000042 ], [ 35.135567244000015, 31.35523360100018 ], [ 35.142808374000026, 31.358897028000115 ], [ 35.15611615600011, 31.362446992000059 ], [ 35.163181455000029, 31.363833403000115 ], [ 35.174919029000023, 31.364213183000061 ], [ 35.194921892000139, 31.368536745000029 ], [ 35.204874020000091, 31.371488781000039 ], [ 35.222896198000171, 31.37233921800015 ], [ 35.230870915000139, 31.37480686400005 ], [ 35.23747141900003, 31.37982769100006 ], [ 35.247697329000061, 31.389474589000145 ], [ 35.258942089000186, 31.396017154000162 ], [ 35.27545864200016, 31.40961408700008 ], [ 35.286935456000094, 31.415713110000183 ], [ 35.293324602999974, 31.421736914000121 ], [ 35.302386074000026, 31.42837275300019 ], [ 35.324081521000039, 31.441154141000084 ], [ 35.357329460000187, 31.464077526000096 ], [ 35.363198642000157, 31.467047639000043 ], [ 35.384258126000191, 31.481445709000127 ], [ 35.388154510000163, 31.485589555000161 ], [ 35.395175285000107, 31.490216080999971 ], [ 35.394233253000152, 31.496048171999973 ], [ 35.399169636000124, 31.511090125000123 ], [ 35.395212797000056, 31.515201711000145 ], [ 35.39684055000015, 31.516903312000181 ], [ 35.39608950100012, 31.521044989000131 ], [ 35.396370033000039, 31.528610317000073 ], [ 35.397208035000119, 31.529996536000112 ], [ 35.400337454000123, 31.531899676000023 ], [ 35.398086944000056, 31.536983209000084 ], [ 35.399489238000115, 31.538035876000038 ], [ 35.397960906000151, 31.539555604000043 ], [ 35.398584452000193, 31.541512145000183 ], [ 35.401082092000081, 31.543903061000094 ], [ 35.40087257800019, 31.546249897000109 ], [ 35.401658939000129, 31.547050849000129 ], [ 35.400296444000105, 31.549264035000135 ], [ 35.401033235000057, 31.550607041000035 ], [ 35.405010902000072, 31.552183629000126 ], [ 35.40763805000006, 31.555539727000166 ], [ 35.410475943000108, 31.556749377000074 ], [ 35.412632064000036, 31.558718746000181 ], [ 35.413130385000159, 31.560864097000149 ], [ 35.417112103000079, 31.564001121 ], [ 35.418399927000053, 31.568247979000034 ], [ 35.415188875000126, 31.576187366000113 ], [ 35.411967594000146, 31.579509187000099 ], [ 35.409141689000194, 31.58441283500008 ], [ 35.408990928000037, 31.597029741000085 ], [ 35.410232018000102, 31.60303264800018 ], [ 35.412085443000024, 31.605089213000042 ], [ 35.416166002000068, 31.60618833500007 ], [ 35.413930386000175, 31.609053376000077 ], [ 35.413504185000193, 31.611091800000111 ], [ 35.415374055000029, 31.61477413200015 ], [ 35.41816529700003, 31.61689407300014 ], [ 35.418902417000083, 31.620111171000076 ], [ 35.421927138000171, 31.622545951000063 ], [ 35.426765052000064, 31.622169409000037 ], [ 35.429242697000177, 31.625416905000122 ], [ 35.431347445000029, 31.626193711000099 ], [ 35.428117643000121, 31.631878842 ], [ 35.42926243800008, 31.633914643000139 ], [ 35.428599840000174, 31.637687713000048 ], [ 35.429286757000057, 31.638922181000055 ], [ 35.431619626000099, 31.63963356000005 ], [ 35.432535958000074, 31.64138795700012 ], [ 35.43542647400011, 31.642163333000155 ], [ 35.43659577700015, 31.643722086000082 ], [ 35.436489338000115, 31.646865579000064 ], [ 35.43915718500017, 31.649744032000058 ], [ 35.439213030000076, 31.651911734 ], [ 35.441028262000145, 31.653187459000151 ], [ 35.441184410000119, 31.654856412000129 ], [ 35.443645690000039, 31.656065903000126 ], [ 35.443955566000056, 31.658384908000073 ], [ 35.443238891000192, 31.660705706000044 ], [ 35.445169171000032, 31.662306394000154 ], [ 35.446038550000139, 31.665383065000071 ], [ 35.448387416000116, 31.667091232000075 ], [ 35.449240220000149, 31.673571335000076 ], [ 35.447828534000053, 31.677330933000121 ], [ 35.44604066100004, 31.679173820000074 ], [ 35.445167547000096, 31.683032451000031 ], [ 35.450139901000114, 31.693269943000132 ], [ 35.450869451000074, 31.698071921000064 ], [ 35.452185417000067, 31.698478319000117 ], [ 35.452434152000137, 31.702259196000057 ], [ 35.460942485000032, 31.710112264000031 ], [ 35.469848001000059, 31.711862857000028 ], [ 35.481799505000026, 31.724194045000161 ], [ 35.486311495000109, 31.733818313000143 ], [ 35.495145152000134, 31.744709992000082 ], [ 35.498435018000066, 31.750690399000064 ], [ 35.501717892000045, 31.754342115000043 ], [ 35.503208845000074, 31.757798314000127 ], [ 35.504005524000149, 31.763451536000161 ], [ 35.506904688000077, 31.766871900000183 ], [ 35.510124175000044, 31.766520928000091 ], [ 35.512633858000129, 31.764827440000147 ], [ 35.51820355000001, 31.764967564000187 ], [ 35.521791039000107, 31.763271301000088 ], [ 35.527725244000067, 31.76494432800007 ], [ 35.53346662000007, 31.762782087000119 ], [ 35.541907367000078, 31.761993446000133 ], [ 35.545315798000104, 31.760603827000182 ], [ 35.55168939400005, 31.760768706000079 ], [ 35.554280052000024, 31.766718429000036 ], [ 35.553674983000121, 31.769886675000123 ], [ 35.554971626000054, 31.772080889000165 ], [ 35.550496496000164, 31.776592240000127 ], [ 35.548242846, 31.781878961000132 ], [ 35.548373404000131, 31.784450858000184 ], [ 35.55159429400004, 31.790230203000078 ], [ 35.551933324000174, 31.792663862000097 ], [ 35.548354309999979, 31.79722360500017 ], [ 35.548483422, 31.799115169000174 ], [ 35.541947991000086, 31.805688832999977 ], [ 35.543023766000033, 31.807333599 ], [ 35.543119829000034, 31.809839352000154 ], [ 35.541755847000161, 31.811151273000064 ], [ 35.543316065000113, 31.812021871000127 ], [ 35.543864553000049, 31.813303880000092 ], [ 35.541184312000041, 31.813688766000155 ], [ 35.542031071000054, 31.815738974000112 ], [ 35.540227934000143, 31.815721796000105 ], [ 35.539351116000091, 31.816789075000088 ], [ 35.542919419000157, 31.817640546000064 ], [ 35.54122753200005, 31.820244920999983 ], [ 35.541221757000017, 31.82238540600008 ], [ 35.542971633000036, 31.821684897000125 ], [ 35.544385632000058, 31.822641818000193 ], [ 35.545692928000051, 31.821639184000162 ], [ 35.546330158000046, 31.823523491 ], [ 35.548749371999975, 31.823675360000095 ], [ 35.548136124000052, 31.826375323000093 ], [ 35.546990857000083, 31.827376427000161 ], [ 35.547424002000128, 31.829082728000174 ], [ 35.545181028000172, 31.830660361000071 ], [ 35.546907231999967, 31.831368990000158 ], [ 35.546465437000109, 31.833215122000183 ], [ 35.549036429000012, 31.836138903000062 ], [ 35.54638929000015, 31.836587788000145 ], [ 35.547102091000056, 31.840395626000088 ], [ 35.545430296000177, 31.842517369000063 ], [ 35.548734211000067, 31.843597220000106 ], [ 35.54391482, 31.84590224700014 ], [ 35.544117092000079, 31.846930240000063 ], [ 35.546608842000182, 31.84702291300016 ], [ 35.545988792, 31.84839689000006 ], [ 35.542027807000125, 31.848504031000118 ], [ 35.543589999000062, 31.850395805000176 ], [ 35.543541468000058, 31.851735162000068 ], [ 35.542142041000147, 31.851932978000093 ], [ 35.542179809000061, 31.850300270000162 ], [ 35.539970610000182, 31.851188518000129 ], [ 35.54138358, 31.854246048000164 ], [ 35.539036707999969, 31.854466288000083 ], [ 35.536538630000052, 31.856158421000032 ], [ 35.539447170000187, 31.857280240000193 ], [ 35.537687238000046, 31.858888057000115 ], [ 35.539342892000093, 31.858607196000037 ], [ 35.540000249000059, 31.860636894000095 ], [ 35.540676326000096, 31.860720823 ], [ 35.541476242000044, 31.859321045000058 ], [ 35.542230157000176, 31.859566110000173 ], [ 35.542438464999975, 31.860570415000041 ], [ 35.54112759200018, 31.861751837000099 ], [ 35.541706103000138, 31.863182430000052 ], [ 35.543345993000116, 31.861615032000032 ], [ 35.543806541000038, 31.864629068 ], [ 35.546872993000079, 31.863798106 ], [ 35.544948644000101, 31.866425249000031 ], [ 35.547354713000175, 31.865327284000045 ], [ 35.548428160000071, 31.86611130100016 ], [ 35.546308601000135, 31.867173165000111 ], [ 35.547234409000168, 31.868356925000171 ], [ 35.545559746000038, 31.869499193000024 ], [ 35.545176674000174, 31.870924677000176 ], [ 35.549315383000192, 31.873199499000123 ], [ 35.547889054000052, 31.874033245000192 ], [ 35.545859250000149, 31.873431257999982 ], [ 35.543494573000146, 31.875176155000077 ], [ 35.539076997000052, 31.874159078 ], [ 35.538725088000149, 31.87555881500009 ], [ 35.539825173000111, 31.876948896999977 ], [ 35.538887473000159, 31.877914726000085 ], [ 35.539121209000143, 31.879429067000046 ], [ 35.532495359000109, 31.882688742000028 ], [ 35.535565433000102, 31.885482148000051 ], [ 35.531401525000035, 31.886879528000179 ], [ 35.531878663000043, 31.88807706700004 ], [ 35.5306448770001, 31.888967342000115 ], [ 35.530116254000177, 31.89070977 ], [ 35.533422449000057, 31.891953314000091 ], [ 35.534159411000132, 31.893853191000119 ], [ 35.533430317000182, 31.894218588000115 ], [ 35.530456884000102, 31.892793985000083 ], [ 35.532490369000072, 31.896510912000053 ], [ 35.530443988000115, 31.897205675000066 ], [ 35.530670394000026, 31.89863183600005 ], [ 35.52798680300009, 31.899307018000115 ], [ 35.527693552000073, 31.902628604000142 ], [ 35.525281899000106, 31.903943497000114 ], [ 35.525892624000107, 31.906097934000115 ], [ 35.524454681000066, 31.908106502000066 ], [ 35.527907790000029, 31.916314213000135 ], [ 35.526672494000138, 31.91906574799998 ], [ 35.527144947000068, 31.922637795000071 ], [ 35.529809032000173, 31.923924019000083 ], [ 35.531350396000164, 31.921829459000151 ], [ 35.532457343000146, 31.921591776000128 ], [ 35.533110293000163, 31.922406141000067 ], [ 35.532207209000092, 31.924310717000083 ], [ 35.534779899000114, 31.925270856000054 ], [ 35.535656245000155, 31.92433030300009 ], [ 35.533919045000118, 31.923264779000078 ], [ 35.535107665000055, 31.922520571000121 ], [ 35.539193754, 31.923998979000032 ], [ 35.536835237, 31.925359887000013 ], [ 35.536135866000166, 31.930263253000192 ], [ 35.536911563000103, 31.930668927 ], [ 35.542442997000194, 31.929417185000034 ], [ 35.542289848000053, 31.930809359000079 ], [ 35.53908039900017, 31.93253874300018 ], [ 35.540624062000063, 31.933804364000025 ], [ 35.54315276900013, 31.931938624000168 ], [ 35.544255741000086, 31.931949131000067 ], [ 35.542737714000168, 31.934388449000096 ], [ 35.545498350000116, 31.935718190999978 ], [ 35.545184088000042, 31.937603411 ], [ 35.54192466100011, 31.937326856000141 ], [ 35.541053276000071, 31.938099616000102 ], [ 35.541798886000095, 31.93968095200006 ], [ 35.544970627000055, 31.941555099000141 ], [ 35.541072434000057, 31.943291973000157 ], [ 35.544124148000094, 31.944295062000094 ], [ 35.541251151000154, 31.945585247000167 ], [ 35.543477337000127, 31.945906371000092 ], [ 35.541993040000193, 31.947679644000175 ], [ 35.544001428000058, 31.94927825100018 ], [ 35.54183487500012, 31.949018561 ], [ 35.539031911000052, 31.953008215000068 ], [ 35.53993157900004, 31.953313783000112 ], [ 35.541408118999982, 31.951739378000184 ], [ 35.541371128000037, 31.953646693000167 ], [ 35.54403126200009, 31.954081661000089 ], [ 35.542875632000175, 31.954716093000172 ], [ 35.543085917000099, 31.957081990000063 ], [ 35.54145466600005, 31.956817799000135 ], [ 35.540244858000108, 31.957894243000055 ], [ 35.54083753600014, 31.960441772000081 ], [ 35.542756747000055, 31.96074411100011 ], [ 35.545276259000161, 31.962503690000119 ], [ 35.542102348000185, 31.964523891000056 ], [ 35.541730349000034, 31.965515736000157 ], [ 35.544236105000039, 31.966224183000065 ], [ 35.544075655000086, 31.967891704000067 ], [ 35.547591636000107, 31.969645524000043 ], [ 35.546721835000028, 31.972883531000036 ], [ 35.543870118000029, 31.971686660000046 ], [ 35.543293284000129, 31.973963999000091 ], [ 35.541307357, 31.975379249000127 ], [ 35.540622257000166, 31.977407585000037 ], [ 35.541736130000061, 31.978002719000074 ], [ 35.540563389000113, 31.979954960000043 ], [ 35.541810248000161, 31.980561443000056 ], [ 35.540660596000066, 31.982506299000022 ], [ 35.53964919900011, 31.983034224000107 ], [ 35.538773517000152, 31.981507331000159 ], [ 35.537447153000187, 31.980950058000133 ], [ 35.534585185000026, 31.985839736000059 ], [ 35.535422969000024, 31.98863663000003 ], [ 35.537246937000134, 31.989665397000181 ], [ 35.535733416000085, 31.99064619100011 ], [ 35.536479009, 31.991797068000039 ], [ 35.535761920000084, 31.992783856000187 ], [ 35.537232811000024, 31.993159562000187 ], [ 35.537574082000106, 31.99479915500018 ], [ 35.540966092000133, 31.99598517700008 ], [ 35.541607344000056, 31.99853650600005 ], [ 35.538856475999978, 31.996935281 ], [ 35.538466926000126, 31.997685921000141 ], [ 35.539608509000118, 31.999127722000139 ], [ 35.538881747000062, 31.999538514000051 ], [ 35.535844386000178, 31.997714059000145 ], [ 35.537448444, 32.000987219000081 ], [ 35.536163191000185, 32.000630769000054 ], [ 35.535611328000073, 31.998539678000157 ], [ 35.534894493000024, 31.998389321000047 ], [ 35.533133627000154, 32.001893689000099 ], [ 35.532216697000138, 31.998986796000054 ], [ 35.529572095000162, 32.000301218000061 ], [ 35.527289698000061, 31.99919386900018 ], [ 35.526844762, 32.000897436 ], [ 35.528392727000096, 32.00303272900004 ], [ 35.525974619000067, 32.002877253000122 ], [ 35.523647686000174, 32.005133166000178 ], [ 35.523946067000054, 32.005737919000069 ], [ 35.525626238000086, 32.004976955000132 ], [ 35.526588100000083, 32.00553961900016 ], [ 35.525272501000074, 32.006963943000073 ], [ 35.525380340000027, 32.007942148000097 ], [ 35.527414343000146, 32.007010632000117 ], [ 35.528435138000134, 32.007630766999966 ], [ 35.527746273000105, 32.009772327000064 ], [ 35.528577399000142, 32.010963756000137 ], [ 35.527002046000064, 32.011499043000128 ], [ 35.526147975000185, 32.013806572000192 ], [ 35.522946549000153, 32.014592698000058 ], [ 35.527950089000058, 32.017026232000148 ], [ 35.528872996000132, 32.018964666000102 ], [ 35.527892884000039, 32.02011791200016 ], [ 35.522263306000184, 32.019928897000057 ], [ 35.522555926000052, 32.021069824000051 ], [ 35.525055710000117, 32.021078193000108 ], [ 35.524286892000134, 32.022520458000145 ], [ 35.521724628000015, 32.021650849000025 ], [ 35.520493461000058, 32.022153371000059 ], [ 35.522639176000041, 32.025008721000063 ], [ 35.521269185000108, 32.026590809000027 ], [ 35.524071654000068, 32.03001817 ], [ 35.522035655000082, 32.029829978000066 ], [ 35.519841228000189, 32.031628101000081 ], [ 35.522435500000086, 32.031855970000038 ], [ 35.52198322400011, 32.033613359000071 ], [ 35.523048342000152, 32.034299794000106 ], [ 35.52291242299998, 32.035050183000067 ], [ 35.520568083000171, 32.034351223000158 ], [ 35.51889257, 32.035938395000016 ], [ 35.521148384000128, 32.040806796000084 ], [ 35.522598241000139, 32.041847667000127 ], [ 35.519353541000044, 32.046223726000107 ], [ 35.519697557000086, 32.047628733000067 ], [ 35.521950135000111, 32.048295381000173 ], [ 35.520448919000103, 32.051011945000027 ], [ 35.522912823000013, 32.050589545000093 ], [ 35.5234571310001, 32.049853515000109 ], [ 35.522972403000153, 32.048344450000059 ], [ 35.524332565000066, 32.047728720000066 ], [ 35.525264696000193, 32.048224390000087 ], [ 35.525772606000146, 32.050892779000151 ], [ 35.530089183000143, 32.050384478000069 ], [ 35.529409701000077, 32.051920529000085 ], [ 35.530432550000057, 32.053366216000086 ], [ 35.529525585000044, 32.05452858700005 ], [ 35.529796629000089, 32.056596155000079 ], [ 35.528980793000073, 32.058382373000086 ], [ 35.531709363000061, 32.058894061000103 ], [ 35.532346163, 32.060301392000099 ], [ 35.53071342700008, 32.05979471500001 ], [ 35.529519866000044, 32.061928519 ], [ 35.533773871, 32.062689547000105 ], [ 35.534805912000081, 32.06401328600009 ], [ 35.533928874000139, 32.064473749000115 ], [ 35.532550994000189, 32.063524703000098 ], [ 35.530353984000101, 32.063696370000173 ], [ 35.530159927000113, 32.064950935000184 ], [ 35.532433396000044, 32.064631689 ], [ 35.53297415000003, 32.065245244000096 ], [ 35.530043866000028, 32.066462886000124 ], [ 35.530479257000081, 32.067330065000192 ], [ 35.53224260900015, 32.067054236 ], [ 35.532748300000151, 32.067764399000055 ], [ 35.532192127000087, 32.068808943000136 ], [ 35.530224893000025, 32.068851661000167 ], [ 35.529920111000024, 32.071108780000088 ], [ 35.533194343000048, 32.07081899100001 ], [ 35.53421944400003, 32.06867529900012 ], [ 35.535462635000101, 32.069366102000174 ], [ 35.535573555000042, 32.071307527000101 ], [ 35.534703117000163, 32.072628358000088 ], [ 35.53599290700015, 32.074175474000185 ], [ 35.535258313000099, 32.077047775000096 ], [ 35.538783157000069, 32.075089706000142 ], [ 35.539308783000024, 32.076491083 ], [ 35.537056659000029, 32.077633859000059 ], [ 35.536822514000107, 32.078532039000152 ], [ 35.539037393000115, 32.07849548400003 ], [ 35.541245618000175, 32.079604769000071 ], [ 35.539058348000026, 32.081267642000114 ], [ 35.539335679000146, 32.0826931900001 ], [ 35.540603404000137, 32.082450930000107 ], [ 35.542960432000086, 32.080270881000104 ], [ 35.546416205000128, 32.081217723000123 ], [ 35.545675937000169, 32.081998329000044 ], [ 35.543869932000064, 32.081209058000013 ], [ 35.542885561000048, 32.082136687000116 ], [ 35.545828657000186, 32.083854943 ], [ 35.545723412000086, 32.084587938000027 ], [ 35.543899238000165, 32.084052771000074 ], [ 35.543032707000123, 32.084987703000138 ], [ 35.545706928000129, 32.088114464000114 ], [ 35.543809846000045, 32.088171159000126 ], [ 35.543005582000092, 32.090228813000181 ], [ 35.539811766000184, 32.090326030000142 ], [ 35.538797987000066, 32.089121779000038 ], [ 35.537477734000163, 32.089887766000118 ], [ 35.540696203000095, 32.091826654000158 ], [ 35.539052337000157, 32.09473190000017 ], [ 35.539820856000063, 32.097137732000078 ], [ 35.537345842000093, 32.098724526000126 ], [ 35.537274621000108, 32.100021193000032 ], [ 35.531980188000034, 32.100796557000081 ], [ 35.532035477000079, 32.101460794000047 ], [ 35.535176088000128, 32.102831455 ], [ 35.534117304000119, 32.106042740000078 ], [ 35.532096063000097, 32.108058603000131 ], [ 35.53853922900015, 32.11065316000014 ], [ 35.542989047000049, 32.110434902000065 ], [ 35.544118846, 32.113012227000013 ], [ 35.542748825999979, 32.115165341000193 ], [ 35.544053608000127, 32.117996542000071 ], [ 35.546335444000135, 32.119489502000135 ], [ 35.546363610000128, 32.12085805300012 ], [ 35.547678937000171, 32.122264059000088 ], [ 35.545895190000124, 32.124310789000162 ], [ 35.54606450100016, 32.125062218000096 ], [ 35.547372457000051, 32.12529844300019 ], [ 35.548944330000154, 32.12408473000005 ], [ 35.550760049000189, 32.126455567000164 ], [ 35.548019068000144, 32.127201217000049 ], [ 35.547215791000042, 32.128325805000031 ], [ 35.550500027000169, 32.129221546000167 ], [ 35.551647406000143, 32.131060119000097 ], [ 35.551163714000097, 32.131955041000083 ], [ 35.549830663000193, 32.131947755 ], [ 35.549104738000096, 32.129704773000071 ], [ 35.548545831000126, 32.13104669900008 ], [ 35.547380897000039, 32.131409383000062 ], [ 35.546385157000032, 32.128992797000137 ], [ 35.545268039000177, 32.12842901700003 ], [ 35.544231685000057, 32.12890039500013 ], [ 35.54568374400003, 32.129953515000068 ], [ 35.542866480000157, 32.130571171000156 ], [ 35.543883152000092, 32.1317454980001 ], [ 35.542916960000071, 32.133362530000113 ], [ 35.543482477000055, 32.134601449000058 ], [ 35.545594423000182, 32.134621969000136 ], [ 35.546068171000115, 32.133024537000097 ], [ 35.546873227000106, 32.132779628000037 ], [ 35.549249710000026, 32.134364432000041 ], [ 35.549959094000087, 32.135837264000031 ], [ 35.549199287000192, 32.137313871000117 ], [ 35.547698822000143, 32.135566677000156 ], [ 35.544019809000076, 32.136695455999984 ], [ 35.544180588000188, 32.138609523000184 ], [ 35.543146946000093, 32.140598723000096 ], [ 35.54563519300018, 32.140227808000077 ], [ 35.54681095300009, 32.140892599000097 ], [ 35.544551138000088, 32.141510227000026 ], [ 35.544298833000084, 32.142493425000055 ], [ 35.547459965000144, 32.143287692000115 ], [ 35.549412497000048, 32.141924593000056 ], [ 35.551445950000186, 32.145030781000173 ], [ 35.5555640930001, 32.142712481000046 ], [ 35.55597042800008, 32.143397870000172 ], [ 35.554661600000145, 32.144287998000095 ], [ 35.555171365000149, 32.145659464000062 ], [ 35.55682931900003, 32.143975078000153 ], [ 35.55846682400005, 32.144037398000137 ], [ 35.558918391000191, 32.144808325000099 ], [ 35.557873420000135, 32.147108230000015 ], [ 35.562096801000109, 32.152499226000032 ], [ 35.559019462000094, 32.152342276000184 ], [ 35.555499123000061, 32.154804763000129 ], [ 35.554480011000123, 32.15259854500016 ], [ 35.553391284000043, 32.152632345000143 ], [ 35.552188103000049, 32.156412982000063 ], [ 35.553854964000038, 32.156959572000119 ], [ 35.556246041000065, 32.155749759000116 ], [ 35.556501400000116, 32.15851039 ], [ 35.554344609000111, 32.159933889000115 ], [ 35.550625104000119, 32.159044356000152 ], [ 35.549979117000078, 32.160709190000034 ], [ 35.548689791000129, 32.161444772000152 ], [ 35.548695173000056, 32.162909047000085 ], [ 35.552208361000112, 32.163650254000061 ], [ 35.553232715000149, 32.16146473200007 ], [ 35.554440043, 32.163351011000088 ], [ 35.557232350000049, 32.163865198000053 ], [ 35.558000540000194, 32.165417005000108 ], [ 35.556193856000107, 32.167162111000096 ], [ 35.553010232000133, 32.164929068000163 ], [ 35.552342482000086, 32.167334852000067 ], [ 35.554276905000052, 32.168587919000117 ], [ 35.554574532000061, 32.17003209600017 ], [ 35.551425716000097, 32.171395103 ], [ 35.551244362000034, 32.172258211000042 ], [ 35.552356034000184, 32.173431503000131 ], [ 35.553606037000122, 32.173485201000119 ], [ 35.556323078000105, 32.170424421000178 ], [ 35.558754939000153, 32.170232491000093 ], [ 35.557981493000113, 32.174141627000097 ], [ 35.554006136000112, 32.174330678 ], [ 35.553119620000132, 32.175081700000135 ], [ 35.55777548500015, 32.176488682000013 ], [ 35.55992625, 32.175135452000177 ], [ 35.561536446, 32.177878523000174 ], [ 35.561468084000012, 32.178762467000126 ], [ 35.559431782000104, 32.179210093000052 ], [ 35.559960776000025, 32.181209915000125 ], [ 35.557871631000069, 32.183385719000057 ], [ 35.558081356000116, 32.18425312100004 ], [ 35.561202466000111, 32.18435388600011 ], [ 35.561167682000075, 32.187048645000061 ], [ 35.563725272999989, 32.189150201000075 ], [ 35.566511141000149, 32.189837791000116 ], [ 35.569283389000191, 32.188809418000176 ], [ 35.568807591000052, 32.191591092000124 ], [ 35.572308898000131, 32.192782100000102 ], [ 35.56947499600011, 32.19586397400019 ], [ 35.569110150000142, 32.199779613000032 ], [ 35.567267720000132, 32.199565696000036 ], [ 35.56426521000003, 32.197522522999975 ], [ 35.562262384, 32.198335749000137 ], [ 35.56581340200006, 32.204276403000165 ], [ 35.563056527000128, 32.205943938000189 ], [ 35.563854752000168, 32.209066698000129 ], [ 35.564951508000149, 32.209265275000121 ], [ 35.565473123000061, 32.207393173000128 ], [ 35.566550765000045, 32.206940812000084 ], [ 35.569680753000171, 32.209618903000035 ], [ 35.573193018000097, 32.209293999000181 ], [ 35.571118757000136, 32.215170539000042 ], [ 35.568130858000131, 32.214181951000114 ], [ 35.564831401000049, 32.216620106000164 ], [ 35.564874156000144, 32.217518954000127 ], [ 35.568201700000088, 32.219090147000145 ], [ 35.571894140000097, 32.218167478000112 ], [ 35.573059595000132, 32.219235448000177 ], [ 35.571955310000192, 32.220988625000018 ], [ 35.569268297000178, 32.220402335000188 ], [ 35.568334452000101, 32.22108384600017 ], [ 35.569509492000122, 32.224008514000047 ], [ 35.569818920000159, 32.230387625000049 ], [ 35.567200520000029, 32.231100937000065 ], [ 35.566817685000103, 32.228736376000086 ], [ 35.563989062000076, 32.228404284000135 ], [ 35.562731312000096, 32.229983225000126 ], [ 35.561918019000075, 32.233957980000127 ], [ 35.558888028000069, 32.235073552000074 ], [ 35.557967121000161, 32.237436073000026 ], [ 35.559948766000105, 32.238183624000158 ], [ 35.561669639000115, 32.236760255999968 ], [ 35.56336601300012, 32.237083717000189 ], [ 35.562796137000078, 32.240169821000109 ], [ 35.563308913000185, 32.241805134000117 ], [ 35.564951580000127, 32.240904551000142 ], [ 35.56602944600013, 32.238612698000111 ], [ 35.567898064000019, 32.238070467000114 ], [ 35.569062346000067, 32.239335177000157 ], [ 35.566833303000124, 32.239796431000116 ], [ 35.566616919000182, 32.240685295000105 ], [ 35.568550271000106, 32.242233035000083 ], [ 35.570236551000164, 32.241726510000035 ], [ 35.571468701000128, 32.243701720000047 ], [ 35.568971165000107, 32.245441206000066 ], [ 35.568587918000105, 32.248178211000152 ], [ 35.567425356000172, 32.25002224800005 ], [ 35.563482817000192, 32.250370596000096 ], [ 35.562346810000065, 32.251478012000064 ], [ 35.564740857, 32.261881706000054 ], [ 35.560131566000109, 32.264334650000137 ], [ 35.557905126000094, 32.272564429000113 ], [ 35.561112480000077, 32.273219257999983 ], [ 35.565740236000181, 32.275716712000076 ], [ 35.565094479000152, 32.278991406000102 ], [ 35.567180351000047, 32.283467815000051 ], [ 35.566819388000113, 32.286057208000159 ], [ 35.561978727999985, 32.29538521500001 ], [ 35.55572237399997, 32.297626966000166 ], [ 35.554450988000156, 32.298912913000038 ], [ 35.557169227000088, 32.300279593000141 ], [ 35.558124668000175, 32.302383468000073 ], [ 35.560328295000147, 32.303281154000103 ], [ 35.559167302000105, 32.303412150000099 ], [ 35.560274151000101, 32.304133339000145 ], [ 35.55997198600005, 32.305422723000106 ], [ 35.562845647000074, 32.307827578 ], [ 35.563774568000099, 32.309668982000176 ], [ 35.561061200000097, 32.313610637000068 ], [ 35.561246416000188, 32.316434083000104 ], [ 35.560308982000038, 32.318053803000169 ], [ 35.558354666000184, 32.319671382000138 ], [ 35.553078615000175, 32.321746859000029 ], [ 35.553411399000026, 32.323625732000153 ], [ 35.555202932000157, 32.325923066000144 ], [ 35.554672784, 32.329240490000188 ], [ 35.557405166000137, 32.331555945000162 ], [ 35.553825368000048, 32.34384046800011 ], [ 35.559489088000078, 32.348503061000144 ], [ 35.554850142000134, 32.354764156000101 ], [ 35.556757347000087, 32.357229659999973 ], [ 35.553748444000064, 32.359319237000136 ], [ 35.553440703000092, 32.361449506000099 ], [ 35.554289461000167, 32.363639624000143 ], [ 35.552873712000178, 32.367007469000157 ], [ 35.556326148000039, 32.36684479000013 ], [ 35.558169778000149, 32.365488082000127 ], [ 35.558924820000129, 32.364138996000065 ], [ 35.557666022000035, 32.361152675000142 ], [ 35.558557668000105, 32.360283969000193 ], [ 35.559561574000043, 32.360472974000118 ], [ 35.563866232000066, 32.369535196000129 ], [ 35.564034850000155, 32.374146403 ], [ 35.562717708000037, 32.377542538000057 ], [ 35.56034235400017, 32.379751678000105 ], [ 35.560493204000181, 32.381936629000108 ], [ 35.562633131000041, 32.385051640000029 ], [ 35.558151625000164, 32.386297746000082 ], [ 35.554463296000108, 32.389359862000163 ], [ 35.553240015000029, 32.388279653000041 ], [ 35.547752094000089, 32.388683554000124 ], [ 35.541456794000055, 32.387181252000175 ], [ 35.538689499000157, 32.388163483000028 ], [ 35.532795451000084, 32.39221893600012 ], [ 35.521858847000033, 32.394515205000118 ], [ 35.514508887000147, 32.397154506000106 ], [ 35.496266980000087, 32.401133291000065 ], [ 35.49094737300004, 32.403033805000064 ], [ 35.482002370000032, 32.409479603000136 ], [ 35.477614406000043, 32.411132246000193 ], [ 35.46759026, 32.411748415000091 ], [ 35.466807654000092, 32.412364464000177 ], [ 35.460701181000161, 32.411697518000096 ], [ 35.45789462, 32.412949854000146 ], [ 35.452982966000036, 32.412850421000144 ], [ 35.448908394000057, 32.410551324000096 ], [ 35.445019644000183, 32.411066379000147 ], [ 35.443875097000102, 32.407709419000071 ], [ 35.440602653000042, 32.405981897000117 ], [ 35.431300675000102, 32.40887462500018 ], [ 35.425314452000123, 32.413577726000028 ], [ 35.419749742000135, 32.416700920000153 ], [ 35.418342597000105, 32.418449129000123 ], [ 35.416708349000089, 32.424037507000151 ], [ 35.41177583100017, 32.434928267000089 ], [ 35.411956402000101, 32.43800368899997 ], [ 35.417234085000075, 32.45688126400006 ], [ 35.420182840000052, 32.459031058000107 ], [ 35.419216830999972, 32.462684486000057 ], [ 35.417383530999984, 32.463861743000052 ], [ 35.413969335000104, 32.47139241300016 ], [ 35.410420085999988, 32.475659834000055 ], [ 35.408458246000066, 32.479667823999989 ], [ 35.404312986999969, 32.493408627000179 ], [ 35.40446766000008, 32.498668139000131 ], [ 35.402438030000042, 32.501559365000048 ], [ 35.396546569000066, 32.502571197000123 ], [ 35.390394230000027, 32.505337168000096 ], [ 35.384576019000122, 32.505115756000066 ], [ 35.381452658000057, 32.508896783000182 ], [ 35.370722811000178, 32.515216397000131 ], [ 35.357118707000097, 32.518838970000104 ], [ 35.349904035000179, 32.518235442000048 ], [ 35.342529506000062, 32.519262282000113 ], [ 35.332673144000069, 32.515480399000126 ], [ 35.330833862000134, 32.51555048400013 ], [ 35.316990892000149, 32.51167765100007 ], [ 35.306288134000113, 32.510035213000037 ], [ 35.294697909000092, 32.509758316000159 ], [ 35.274912431000132, 32.514628221000123 ], [ 35.251820208000026, 32.523567218000153 ] ] ] } }
]
}
